Seismic Zone,PGA (m/s²),PGV (m/s),PGD (m),Spectral Acceleration (g),Soil Type,Site Amplification Factor,Historical Earthquake Magnitude (Mw),Fault Distance (km),Seismic Wave Frequency (Hz),Building Height (m),Number of Stories,Structural Material,Foundation Type,Natural Frequency (Hz),Damping Ratio (%),Mass of Structure (kg),Axial Stiffness (kN/m),Bending Stiffness (kN·m²),Lateral Load Resisting System,Predicted Max Inter-Story Drift Ratio (%),Predicted Max Roof Displacement (m),Predicted Base Shear Force (kN),Predicted Structural Acceleration (m/s²),Predicted Damage Index (0–1 Scale),Predicted Collapse Probability (%)
Low,0.447737052,0.100058366,0.101695679,1.018369354,Sand,1.028710627,8.207107875,50.21822777,2.478248947,123.8534989,49,Steel,Raft,0.979809026,9.44265337,728726.0692,3208.984743,4687.152866,Braced Frame,1.068272249,0.191935898,823.1725697,0.935957678,0.766830342,76.6830342
Very High,1.087645162,1.453060387,0.454504422,0.185548986,Soft Soil,2.917203696,4.964160424,14.34379271,2.874142429,76.72728374,2,Concrete,Deep,3.083202885,9.943202733,432309.1894,9383.325452,23001.27338,Moment Frame,4.858222577,1.090398881,2647.750168,2.987354757,0.38694585,38.69458499
Very High,0.698641867,0.777532734,0.380439634,0.206942709,Clay,2.758485475,8.743593193,50.11147237,0.62589418,86.05389529,31,Concrete,Deep,2.557946125,2.127408347,228584.6785,7063.086167,5649.765204,Braced Frame,0.725251311,0.186726884,3001.886787,0.957652615,0.469990089,46.99900888
Moderate,0.719563721,0.58351453,0.338522786,0.418489545,Rock,1.394766899,8.077827965,17.74128614,7.976260182,167.2479441,25,Concrete,Pile,1.133438454,6.519459424,563816.5999,2596.653797,30373.62211,Shear Wall,0.957881931,0.945722121,3180.088152,3.43053745,0.16680732,16.68073203
Low,1.009051254,0.124505193,0.151182193,0.155200312,Sand,2.610072535,5.31562615,13.48744284,4.228846839,65.41875545,4,Concrete,Shallow,3.799954074,2.795127993,264070.0659,6339.102369,14771.66419,Moment Frame,0.919445538,0.262315109,3741.086508,2.501500202,0.018627689,1.862768852
Moderate,1.41079287,1.126568873,0.092838341,1.363699922,Rock,1.940312631,7.704035825,93.33192602,2.368254478,188.8945181,11,Composite,Shallow,1.522438496,3.362586768,975573.1782,8768.408897,15076.02572,Moment Frame,2.97142917,0.169870501,1509.910864,0.638784213,0.666197493,66.61974931
Low,0.189608885,1.717186397,0.378469093,1.329661517,Clay,1.815974259,6.232314252,60.8900513,2.394723748,40.02859614,17,Masonry,Deep,2.032207132,7.710259044,420822.9183,7113.454854,4761.57012,Shear Wall,4.5959513,0.389790173,3131.908223,4.571201659,0.587718283,58.77182834
Moderate,1.254640532,1.919500128,0.237604815,0.331295599,Clay,1.491755033,6.310326051,66.28951575,9.023859418,134.2308726,44,Masonry,Shallow,1.999186734,9.799009459,914181.723,2825.211932,16201.65521,Moment Frame,1.350045797,0.517959479,981.288648,3.398706509,0.622428152,62.24281521
High,0.509336355,1.174915406,0.113668987,1.521334131,Clay,2.078130891,8.024805416,40.77757336,8.355774345,136.0604881,2,Steel,Deep,1.372181471,6.353699513,264276.2968,6664.059123,25827.18168,Braced Frame,2.809880582,0.559768104,1134.03866,2.77536583,0.255001758,25.5001758
Very High,0.721487236,1.077476523,0.308694367,0.363136259,Rock,2.405756059,8.832531636,90.9891083,5.579955765,54.17805648,6,Steel,Pile,2.267385592,8.655260228,229748.555,6382.014041,29648.34506,Braced Frame,0.961285299,1.294083215,383.1789975,1.934269015,0.239277463,23.92774629
Low,0.13067866,0.261607132,0.021126592,0.611998498,Rock,1.704052391,5.069951428,64.15511847,6.199496924,68.32636875,9,Composite,Deep,2.472060228,1.079954234,636056.0726,8298.014804,4266.612013,Braced Frame,3.192570791,0.119413932,3747.652901,0.760813533,0.830296311,83.02963113
Low,0.521464509,1.142858323,0.163758957,0.523260729,Rock,2.184282225,6.392836066,77.14781708,4.795823148,167.7857061,5,Masonry,Deep,3.772264029,1.329684759,790410.1244,2192.259671,32921.5001,Braced Frame,0.703907047,0.170810029,2559.615203,3.566840018,0.761252753,76.12527526
Very High,0.80368374,0.82196025,0.23480994,0.732922068,Rock,2.338488427,6.664237236,37.48768443,3.977498775,153.5520247,20,Masonry,Pile,3.872329157,6.370519036,588426.3357,7146.529337,24954.91228,Shear Wall,2.507422761,0.385525261,1229.019243,4.086913518,0.336790116,33.67901158
Low,0.178646508,1.253557034,0.074831209,0.532928402,Clay,2.364467997,6.193403176,96.0411762,9.163221124,69.17369666,29,Concrete,Shallow,0.961068648,4.500847914,268305.8994,760.0215753,27308.49239,Moment Frame,3.310390887,1.745405508,2803.376742,0.716512365,0.637805716,63.7805716
Low,0.787534021,0.838580061,0.492342584,0.931216575,Clay,0.914325416,6.134351057,82.22566773,1.343565765,109.1215267,21,Composite,Deep,3.045307037,9.007820335,85999.64474,7113.665356,41807.03701,Braced Frame,2.937726792,1.260923803,1803.488983,2.52338136,0.828150004,82.81500042
Moderate,1.39795488,0.556568335,0.105339585,0.792593398,Sand,2.691445173,4.735209004,85.54089784,4.242623218,17.02765777,9,Composite,Deep,4.501749432,3.717837218,637374.3801,9624.154387,17769.09582,Shear Wall,0.786002365,1.463435622,4194.189056,2.475746316,0.888829442,88.88294422
Low,0.247550505,0.280434023,0.066046212,1.777168134,Sand,1.808157292,7.584923793,18.04723248,3.511162889,45.70544707,28,Concrete,Pile,0.722175723,4.888459248,174485.3641,2156.688529,9528.504457,Moment Frame,0.89072952,0.74702069,2664.33201,1.81456737,0.005806261,0.580626091
High,1.170217019,0.698345045,0.102563902,0.195074795,Rock,1.37731538,6.462964877,27.82535758,5.03169213,99.73500898,8,Composite,Shallow,2.469987414,5.75118278,376017.5677,3457.347842,28038.69861,Moment Frame,3.389815924,0.434308495,197.5630781,3.967775287,0.813462393,81.34623931
High,0.673539475,0.283625185,0.384761505,0.34170834,Soft Soil,1.331881916,5.376572112,29.27703337,4.630555558,21.76487838,31,Composite,Deep,3.801694988,3.457349496,691995.516,6037.279934,47306.07396,Shear Wall,4.063655551,0.085543108,4926.221667,0.587695941,0.350392334,35.03923342
Very High,1.0172432,0.436104207,0.213327324,0.18980402,Soft Soil,1.862631048,8.17215076,27.8200131,5.237006363,169.4498092,20,Steel,Pile,3.135158405,9.176453807,143122.2686,7457.752936,26375.61134,Shear Wall,4.549564572,0.982185884,417.7777643,1.104594202,0.718378285,71.83782848
Low,0.464331237,1.975938701,0.283142554,1.163930031,Clay,2.751029387,8.111523367,85.68540805,1.485197875,145.011211,27,Masonry,Deep,0.682811152,5.180802262,170888.9058,3771.528209,41763.69653,Braced Frame,4.086696425,1.152819119,3494.993035,0.107853568,0.371401365,37.14013646
Very High,0.323289168,0.943796758,0.011483569,0.192665772,Clay,1.63236468,6.688762326,4.156594726,5.180100865,189.0085658,8,Composite,Raft,2.103709402,4.817400482,108582.8969,6810.460283,38094.57067,Moment Frame,4.872227007,1.795035561,2214.416404,1.927628402,0.606249087,60.62490868
High,0.32464766,1.110556356,0.018181223,1.521947554,Clay,2.449396643,5.843027975,8.533898909,2.499946257,140.2260467,21,Steel,Pile,2.634749591,8.64777744,996275.1725,9043.148529,26398.20856,Moment Frame,2.10043384,1.765365028,1284.123142,1.526773023,0.64678244,64.678244
Low,0.198688724,1.759875205,0.223466949,0.970295672,Sand,1.013001208,7.371417266,28.11757219,1.924880355,188.3782676,28,Masonry,Shallow,4.980058888,3.807805615,417722.9302,7402.308479,32730.18411,Shear Wall,1.722712196,0.855123465,3398.468261,4.34827052,0.404992771,40.49927709
Low,0.359905387,1.991580911,0.408510966,0.995912962,Sand,1.847324745,5.796684611,20.78742449,0.741858766,113.1299484,23,Concrete,Shallow,1.057317965,8.357188101,910505.4093,7254.715817,20927.32902,Moment Frame,0.238101856,0.852920079,673.1919008,3.754470196,0.512785331,51.27853311
Very High,1.029907139,1.207157454,0.4427342,1.054710663,Clay,2.981709509,5.562035686,23.95410177,7.650260332,122.0426292,6,Steel,Shallow,4.915634082,2.100455674,328906.3565,4128.721255,27000.80577,Braced Frame,2.304489694,0.330634564,4298.321157,0.513913763,0.726313372,72.63133719
High,1.334366857,1.64370026,0.044266577,0.390383301,Clay,2.494963166,7.787315943,79.99637574,4.331675016,195.5093557,3,Steel,Shallow,2.005518964,2.6450968,765542.4369,9158.578434,25857.00201,Moment Frame,3.291720607,0.522323486,1290.52933,3.730683984,0.476305269,47.63052687
Low,1.23977596,0.721187946,0.269643188,0.436073515,Clay,1.263162675,4.681463579,56.7495328,6.303772465,130.2151836,5,Masonry,Deep,1.161538333,9.557574996,258113.2855,3134.567949,35746.40778,Shear Wall,4.095502342,1.852070517,1839.195609,3.409461085,0.013980485,1.398048509
Very High,1.059188034,0.680913519,0.456701613,0.641989449,Soft Soil,1.903171242,4.92645812,1.571295468,7.303174099,11.00338093,9,Concrete,Deep,2.187723594,8.582027417,523408.4742,2450.163388,21089.08465,Shear Wall,1.410531376,0.290661662,3181.586,1.480448941,0.012904197,1.2904197
High,0.254604609,0.86513707,0.194598404,1.108943907,Sand,1.31397448,4.530546783,43.5029538,6.825234987,146.1415414,7,Steel,Shallow,3.147176595,4.491090113,833384.9523,3960.12737,5888.589008,Braced Frame,2.616597254,1.937712098,55.09511205,0.175757796,0.66131085,66.131085
Very High,0.504862425,1.377763799,0.41495335,0.457200219,Soft Soil,1.70103404,5.188244339,41.38060776,4.757957119,181.566395,4,Composite,Shallow,1.224787491,6.746108038,825517.679,6676.484097,39646.76662,Braced Frame,3.343846867,1.014429715,2390.105641,0.664295767,0.847237537,84.72375375
Moderate,0.533729625,1.39616421,0.067714132,0.297763936,Soft Soil,2.516184852,4.810455039,12.28058168,3.940195437,160.1381487,39,Composite,Shallow,1.5989076,9.486731705,804566.6815,8685.940869,34557.79716,Moment Frame,2.802854043,0.918647482,4476.532161,1.324711315,0.785273538,78.52735375
Low,0.449939725,0.698954926,0.46776185,1.749198707,Clay,2.496694594,8.981110655,67.93803707,3.822003105,118.8474882,5,Composite,Deep,4.301823208,2.906730126,832547.6924,1754.748432,47556.04932,Moment Frame,1.442701515,0.357530378,3418.057424,4.101449594,0.310400302,31.04003019
Moderate,0.821007924,0.353098856,0.375960235,0.137369085,Clay,1.301820831,5.799644865,70.50762165,6.43648309,135.9041851,11,Concrete,Shallow,4.995245416,1.531094232,250898.6672,8231.120684,22007.09262,Shear Wall,4.001783948,1.326467088,1970.106806,2.380032847,0.471127885,47.1127885
High,0.849775341,1.301552887,0.470725862,1.464585589,Rock,2.8288913,5.171706057,72.36842869,4.998464114,198.0873989,15,Steel,Shallow,1.727228919,5.837212581,508105.4589,8221.822249,4832.077189,Braced Frame,0.949468961,0.925092582,3319.100919,4.60013808,0.23416074,23.41607401
Moderate,0.599640365,0.343819138,0.338632,1.439659754,Rock,2.103650002,5.584483161,73.11862361,8.506409255,22.67910726,34,Composite,Raft,0.914512659,2.283371908,510627.9009,6075.733888,6959.330332,Braced Frame,4.534401186,0.747619505,4686.018653,3.966827451,0.989149911,98.91499107
Moderate,0.595304822,1.199135766,0.182338562,0.605263994,Soft Soil,1.63583344,8.712565072,1.005229866,8.759549645,135.1127416,13,Concrete,Raft,4.007219936,2.685871834,895977.363,7726.155426,38892.65762,Braced Frame,4.76772407,0.536387275,979.6363183,1.506830081,0.260506449,26.05064493
High,1.259977837,1.417502043,0.469152405,0.330565247,Sand,1.904258278,6.840721004,95.43815958,1.788547742,60.26255044,48,Composite,Shallow,3.082187299,9.023852708,332047.2379,2227.866632,4320.106856,Moment Frame,1.891308984,0.142308738,2682.449644,4.242274567,0.416261593,41.62615928
Very High,1.205009988,1.431161843,0.138507821,0.347568699,Clay,2.131156758,6.141681433,81.60666794,1.44871315,129.8176273,7,Masonry,Pile,0.681925488,1.066631128,934921.0987,2111.067008,45483.4811,Braced Frame,1.943290773,1.043462952,1211.951027,0.671951718,0.681128951,68.11289513
Moderate,0.530914164,1.53159701,0.166754089,1.285633749,Clay,2.03175917,8.430261561,90.49418796,6.340969168,123.4865973,40,Steel,Shallow,4.744503111,8.351380238,478255.9495,8696.600324,14800.85545,Shear Wall,3.742063469,0.632687583,4278.411964,0.27697585,0.87601767,87.60176697
Very High,1.379303821,1.758432901,0.350703401,1.192771205,Soft Soil,1.870091078,6.277456217,2.548686235,3.082134906,34.92408226,6,Steel,Raft,0.574637736,5.652556987,686297.653,5232.410154,45045.07299,Shear Wall,2.335814133,1.418651754,3619.198745,3.081836792,0.051475684,5.147568407
Moderate,1.433941024,1.049922085,0.382892833,1.430667646,Rock,1.910852169,6.007538565,93.45202078,0.283850116,45.31559592,39,Concrete,Pile,3.201710728,6.033649489,305438.9567,2836.403535,38901.83559,Moment Frame,0.240189704,1.44980949,4015.325805,1.774540871,0.301019676,30.1019676
Very High,0.557439559,1.48747346,0.464772338,1.693717993,Sand,1.188106203,5.432771351,81.16906434,8.897562427,126.2177677,30,Concrete,Pile,2.234898828,7.045911644,439783.2015,7042.938397,43688.85078,Moment Frame,4.607395966,0.670892953,4717.90867,1.714185865,0.568985848,56.8985848
High,0.596194928,1.276428197,0.103196402,1.276276518,Rock,2.588012389,6.200085708,83.88469515,2.346317596,30.00483972,22,Steel,Shallow,2.871794808,4.883004931,724310.8855,8972.814086,11487.9449,Braced Frame,2.210676676,1.34155016,1199.928443,3.467320112,0.618313081,61.83130814
Moderate,0.807887815,0.454615886,0.39920102,0.364947612,Rock,1.991872704,5.925079602,10.23545109,9.299878452,56.71027065,25,Composite,Raft,1.223428139,2.040506994,537109.7848,6507.065136,30188.98129,Moment Frame,1.097125993,0.524763728,291.159899,4.265508756,0.070027438,7.00274385
High,1.417569138,0.148810325,0.369534481,0.513852449,Rock,1.088375696,7.547867817,74.13902486,7.202601064,167.8728818,28,Composite,Raft,3.502929916,1.925382014,934172.6111,3799.777908,5585.867472,Shear Wall,2.822753958,1.457075715,1489.973415,1.678659976,0.664078738,66.40787378
Moderate,1.326847206,0.640628633,0.032833484,1.531729342,Rock,2.485545623,5.803122171,96.03175227,7.65026955,68.78284367,20,Masonry,Pile,4.806654508,7.789259793,750268.7176,5090.75877,10911.75761,Braced Frame,1.172640197,0.04199352,2025.739578,1.692567728,0.528064366,52.80643656
High,0.243595148,0.941764042,0.194224347,0.455820329,Clay,2.851376752,7.097398859,68.1761868,2.094468808,100.1717305,39,Composite,Shallow,2.400444195,2.989316289,586182.7792,7646.559879,16185.20914,Shear Wall,1.109507798,0.311701446,3144.541043,2.715870093,0.827627379,82.76273794
High,0.649823041,1.272501294,0.142099963,0.223287939,Clay,2.884075178,4.796514743,57.48557906,2.418524814,188.5223654,3,Concrete,Deep,2.710199732,1.252915153,892336.2688,1141.261674,37299.81698,Braced Frame,2.774083504,0.497567237,3998.637584,3.30059965,0.222189176,22.21891762
Moderate,0.874719666,1.714922728,0.152940722,1.295576092,Rock,1.611839011,5.360801205,94.6173381,5.260550763,49.29407232,5,Concrete,Deep,1.351096019,9.816525002,682278.5693,2563.062902,2211.00459,Moment Frame,2.016107232,1.548141619,1781.526276,1.094238398,0.195026985,19.5026985
Moderate,0.804385462,0.472866862,0.491490493,0.784294804,Sand,1.098137122,6.333323722,44.85077505,1.803788541,80.97707338,1,Composite,Raft,4.480966322,9.823523674,664954.4497,4894.540273,45252.74686,Braced Frame,2.907667063,0.142088744,2393.810084,4.572127849,0.793337222,79.33372219
Moderate,0.371408295,0.338544601,0.321745929,1.664068089,Soft Soil,1.940479179,8.716271643,60.33006306,3.123773758,123.2592662,15,Concrete,Deep,4.861637145,4.403272036,284052.7665,6240.289159,4469.372172,Braced Frame,4.98444464,0.384233716,3938.062967,3.306640967,0.703869129,70.38691289
Low,1.30234348,1.9306119,0.359120403,1.205433621,Sand,1.047740305,6.197633936,48.15749106,3.282478532,152.2910913,26,Steel,Raft,3.974225048,1.229714601,425114.1173,3722.073115,19448.01957,Shear Wall,4.309188956,0.72366197,1165.377195,3.163292876,0.791673361,79.16733606
Very High,1.047717096,0.305284663,0.488332201,0.253712262,Sand,2.854772321,7.488333545,93.35177591,1.680336339,180.8224104,3,Steel,Raft,2.80531281,7.545381927,699138.47,3334.713758,4973.391788,Shear Wall,0.137586917,0.028258238,1124.803043,4.530558617,0.781934141,78.1934141
Low,1.273071725,1.009133033,0.189223689,1.711356164,Sand,1.20387518,5.647892501,8.53238795,2.131310051,183.5172326,40,Composite,Raft,4.792624758,8.479108544,897202.1259,893.1498591,38679.42431,Braced Frame,0.347722977,1.526620741,2966.7033,4.545598895,0.104000676,10.40006758
Low,1.302269991,1.212571085,0.401118244,0.539547348,Rock,1.356084892,5.071651092,50.61085038,7.906663236,156.4448145,41,Steel,Deep,0.938480266,2.125123211,349770.1,809.7168345,7924.433697,Moment Frame,3.089389257,1.124609248,2208.481311,0.764195591,0.278583047,27.85830473
High,1.147698195,1.1286114,0.217830951,0.673261234,Clay,1.694600359,4.7634147,69.0082917,1.75523896,49.52451314,47,Steel,Raft,2.496756127,2.219127534,254711.3408,3147.601116,44353.0886,Moment Frame,3.168654798,1.80235198,4747.039175,0.81086997,0.260085136,26.00851361
Moderate,0.714894842,0.263461098,0.434897302,0.783842703,Sand,1.642961831,5.874360743,79.3987473,0.381728179,9.837819358,42,Masonry,Pile,2.780507392,8.400015997,614011.1799,5539.807951,26980.87734,Shear Wall,4.403135136,0.071751755,1817.301188,3.833548625,0.934587281,93.45872814
Very High,0.954765457,0.208351137,0.091148113,0.187081304,Rock,2.548258363,5.209474621,58.7188461,6.330613932,79.83591642,34,Masonry,Shallow,2.561198815,9.297166498,113837.2432,5785.529216,47475.16815,Moment Frame,3.182380155,0.550067461,3809.800237,4.788711733,0.487466574,48.74665741
High,0.324511569,0.300418512,0.473895402,0.944076218,Sand,1.803897005,5.283047016,90.98285667,9.762232882,32.60202594,5,Steel,Shallow,4.051607778,8.11679353,728814.6164,5193.261182,15227.68473,Shear Wall,1.215801239,1.465190798,2936.30908,3.365917025,0.111057133,11.10571327
Low,1.043103584,1.212616599,0.110167082,0.309641435,Sand,1.175690172,7.923416888,94.25715324,3.379016765,143.5255913,31,Composite,Raft,3.417933877,2.806704543,717981.6161,4393.866498,23261.49144,Moment Frame,2.395729516,1.353547345,320.1516552,2.115453293,0.289577906,28.95779059
Moderate,0.350954558,1.134255287,0.163784033,0.781649555,Rock,1.38786177,4.571271319,7.367603096,1.274691462,133.9204644,13,Masonry,Shallow,0.807960636,4.703690975,387217.7294,2896.770098,35018.10115,Braced Frame,4.064028463,0.493684307,467.7084626,3.449018385,0.871901649,87.19016485
High,1.071529427,0.544107505,0.378339925,0.69620664,Clay,1.920049447,7.010145566,40.83468341,5.746834521,13.57447012,43,Concrete,Deep,1.862966275,6.407581833,898043.7707,4306.5971,41763.75232,Shear Wall,4.621842327,1.195418593,1055.624617,1.221176724,0.847066378,84.70663782
Moderate,0.421437425,1.31177087,0.197483816,1.413828142,Clay,1.124398618,6.207576213,3.32244315,9.07290669,168.1357869,1,Concrete,Deep,1.827568872,2.442641264,527072.0845,1818.219671,21646.4973,Shear Wall,1.260884083,1.58957773,758.6054831,4.990034869,0.900339483,90.03394834
High,0.26457182,1.658128254,0.304497477,1.46538987,Soft Soil,2.145642486,6.779475,33.61224908,7.86221162,53.50493693,22,Concrete,Shallow,2.915034525,2.895422434,663476.7032,1594.962676,44729.19438,Braced Frame,2.744063202,0.0764276,1680.388874,2.212317568,0.388528773,38.85287727
Moderate,0.331398286,0.179000024,0.222842177,0.3608019,Rock,2.044644074,7.032736067,54.14995358,6.262907097,89.28427972,15,Composite,Deep,1.599000405,3.545974649,249099.5578,3349.46094,6781.373208,Shear Wall,0.878744996,1.43808051,2915.995134,4.665261412,0.641340961,64.13409615
Low,0.102788989,1.046446893,0.371442599,0.723137019,Soft Soil,2.372345096,5.910154625,91.16869812,3.219059316,135.2470784,26,Steel,Shallow,0.762904494,5.585619433,446473.3184,9955.813566,35725.55122,Moment Frame,2.535298525,0.51167316,3031.694588,2.210910459,0.27817392,27.81739199
Very High,1.106235465,1.409689783,0.114937295,0.734700374,Soft Soil,2.862950154,5.827989871,84.80887792,5.464613715,88.73666344,18,Concrete,Shallow,3.337676795,5.597243985,869296.6633,3601.721001,18061.75013,Moment Frame,0.541559192,1.896224064,2959.450537,4.647884927,0.180825331,18.08253312
