Seismic Zone,PGA (m/s²),PGV (m/s),PGD (m),Spectral Acceleration (g),Soil Type,Site Amplification Factor,Historical Earthquake Magnitude (Mw),Fault Distance (km),Seismic Wave Frequency (Hz),Building Height (m),Number of Stories,Structural Material,Foundation Type,Natural Frequency (Hz),Damping Ratio (%),Mass of Structure (kg),Axial Stiffness (kN/m),Bending Stiffness (kN·m²),Lateral Load Resisting System,Predicted Max Inter-Story Drift Ratio (%),Predicted Max Roof Displacement (m),Predicted Base Shear Force (kN),Predicted Structural Acceleration (m/s²),Predicted Damage Index (0–1 Scale),Predicted Collapse Probability (%)
Low,0.812446778,1.24465394,0.371072016,0.112056082,Clay,1.303075653,7.779917293,93.14995956,2.770980973,186.1776888,17,Composite,Raft,2.762095724,2.43678581,866345.0503,1219.52663,42773.62733,Shear Wall,4.664840619,0.715778876,1629.395287,0.444620835,0.791655835,79.16558354
Very High,0.616993078,0.409736316,0.402743559,1.25642617,Soft Soil,2.741489231,8.693607297,25.32928091,5.163220422,48.39160361,38,Concrete,Deep,3.401527335,1.257353545,177941.0771,621.0199617,31644.46247,Braced Frame,4.741295431,0.130257048,1700.164858,2.468216605,0.185238303,18.52383031
Low,1.406094808,0.544244383,0.422674785,1.503247823,Rock,0.844267788,5.754923668,58.11895586,4.457469628,199.936275,15,Composite,Shallow,1.321715434,9.180001044,855262.8893,6283.619879,32345.40105,Moment Frame,4.372762633,0.938625143,3707.93415,3.736147203,0.815362003,81.53620035
Moderate,1.258508848,0.145044732,0.198131616,0.349234111,Clay,2.455999703,8.775950426,28.17991389,5.173042659,38.44692529,15,Steel,Raft,2.550292217,8.394324167,613065.6059,1121.911345,47638.57249,Moment Frame,1.32824397,1.989312283,1295.681437,1.043502131,0.614529133,61.45291333
Low,1.076093135,1.686399691,0.026580466,0.371432794,Rock,1.842301244,4.784682023,82.58535456,6.759864754,155.4515592,48,Concrete,Raft,2.076204075,9.753247293,934733.625,4113.599902,49135.65839,Moment Frame,4.305074093,0.604882753,4488.962236,3.877486666,0.09803128,9.803127951
Moderate,1.10005729,1.951912132,0.201536259,1.443141525,Soft Soil,1.782898749,7.213562385,1.527094867,3.932592039,48.56544626,40,Masonry,Raft,0.630598167,1.524140044,882237.1586,534.261143,33016.34188,Moment Frame,2.538427238,1.474930484,2829.037306,0.917381284,0.895319555,89.53195554
Very High,0.746402601,0.35737312,0.337204359,1.147694272,Sand,0.815612371,4.757097237,56.91709713,2.587946103,20.76512632,20,Steel,Raft,3.202670911,2.405595974,693182.606,6344.66124,26578.07106,Moment Frame,3.015158163,1.100098786,2712.26697,4.016269909,0.577957195,57.79571955
Very High,1.38939233,0.539802906,0.225724843,0.176262948,Clay,2.602676108,8.521983845,34.5811397,1.745385314,175.6119982,15,Masonry,Shallow,2.577032925,1.947813032,674931.5269,4541.444024,30788.08286,Braced Frame,4.21894305,0.657198348,1360.523564,2.397784307,0.656248278,65.62482781
Moderate,1.072433598,1.749978095,0.374732612,1.158329884,Rock,1.591614781,6.884140757,32.945687,3.559793783,172.4564955,35,Composite,Shallow,1.520835329,7.150745191,252505.9923,1706.697313,19739.74155,Braced Frame,0.244955938,0.18831805,4183.716984,3.454727826,0.283510036,28.35100357
High,1.120573486,1.860281216,0.179134232,0.625160129,Rock,1.989684389,7.512067578,64.84572606,7.443884105,83.69622653,6,Composite,Deep,2.47368925,6.454090664,160915.3188,3315.492265,49385.37423,Braced Frame,1.878418702,0.439557223,2885.110277,4.595291646,0.871635504,87.16355039
Moderate,1.306367265,0.897292027,0.317737326,0.726832764,Clay,2.29006151,8.242082667,85.29696048,7.59137861,141.9672478,30,Steel,Shallow,3.921430488,4.234016794,444623.7585,5911.77664,35546.04172,Braced Frame,4.096897548,1.565888544,819.8069121,2.101265466,0.545200735,54.52007352
High,0.483700225,0.196182697,0.094023483,1.408543411,Sand,2.345785068,5.176397801,61.31034375,6.702363328,113.6278569,8,Composite,Raft,4.047957261,1.516811315,227251.0375,6738.776996,15259.33292,Shear Wall,4.088378441,0.565250153,1071.176274,1.241491881,0.421120284,42.11202843
Low,1.229899265,0.174844484,0.374935349,1.478589828,Sand,2.903156129,4.673662029,85.46412489,2.416878936,171.3264422,31,Masonry,Deep,3.317725418,6.756957856,147295.8818,4892.190857,3830.54865,Braced Frame,4.258570842,0.29716194,2367.866749,4.349104073,0.534281745,53.42817452
Low,0.373336844,1.190504746,0.273302288,0.780606266,Sand,1.968947897,8.454965157,27.19511408,5.922053834,66.43591402,48,Concrete,Deep,2.4451896,6.131084366,337210.3966,8137.611603,3191.374528,Moment Frame,0.929157911,0.669283698,3909.227021,0.891921576,0.703313081,70.33130815
Low,0.583478733,0.846500707,0.10282813,1.710159991,Soft Soil,1.679383012,5.917199524,52.43068362,5.74982765,107.116118,47,Concrete,Deep,2.963598268,2.0161289,867465.4457,1568.183911,11040.73605,Moment Frame,3.558844429,1.172245475,4699.511604,3.194232654,0.695047876,69.50478757
Very High,0.569854636,0.154439612,0.146663676,0.790986621,Rock,2.898147978,5.080405086,45.60311737,4.894235361,99.64761238,32,Concrete,Raft,2.048073783,9.18018734,66290.74632,1303.184365,12412.73966,Braced Frame,0.817866368,1.409891697,3334.31822,4.623941111,0.357577101,35.7577101
Low,1.469935656,1.208179545,0.374555746,1.41212126,Rock,2.212642517,6.608075567,2.152845051,5.544791965,74.01163612,45,Steel,Pile,0.807470446,2.790547387,328005.7976,920.3205557,21337.2292,Moment Frame,3.946980244,0.780856026,2555.409085,3.404543887,0.38525828,38.52582801
High,1.299152113,0.12147482,0.241818017,0.92259135,Rock,1.455930784,7.192377341,56.12440217,4.968727263,178.8337376,15,Composite,Raft,2.050978867,7.691582369,452849.576,5590.364475,11527.45457,Braced Frame,1.301117422,1.001312843,1291.123289,1.058837319,0.562238193,56.22381928
Low,1.081637806,1.59600672,0.108799689,1.625804955,Soft Soil,1.07822134,4.639367715,66.49090809,5.698018024,37.34619531,18,Masonry,Shallow,2.745597229,8.965682763,535041.2621,7209.20119,31914.61111,Moment Frame,3.715306865,0.915284217,3380.696404,0.846191364,0.924407121,92.44071207
Moderate,1.117879466,0.682222363,0.483668324,1.643194114,Rock,2.653619903,5.737030462,59.59952604,7.183508951,34.15418471,13,Composite,Shallow,3.07440327,6.215274916,222498.633,1739.953295,11351.48181,Shear Wall,2.329507931,0.027916666,4912.086791,1.336297102,0.745430267,74.5430267
Moderate,0.886901912,0.176490206,0.357847385,0.248608573,Soft Soil,1.596799526,4.647599434,73.89170998,1.185319125,117.4973594,24,Composite,Raft,4.691844685,3.221640148,966009.1898,6569.983408,10205.95041,Shear Wall,4.932690976,0.797244945,2407.301254,2.017893481,0.390414985,39.04149854
Very High,1.425926934,1.21786922,0.478610281,1.692038663,Sand,2.253033387,6.391509251,57.56261332,7.521294946,133.2113748,40,Composite,Raft,3.931200536,3.783236659,599929.3914,5031.003779,24090.61265,Braced Frame,2.941479771,1.178766422,852.6023005,0.879879256,0.337032627,33.70326266
Moderate,0.794762254,0.855600387,0.214125418,1.503409231,Clay,1.835796123,8.527950131,7.60827523,1.445272886,42.95075459,14,Concrete,Deep,0.929564295,8.971727803,546005.0197,9879.772751,44544.76137,Braced Frame,3.199638885,1.144189986,561.5358782,4.009288926,0.523636674,52.36366741
High,0.632724794,1.950220785,0.23807507,1.445228214,Rock,1.237645516,8.921935852,12.52810688,0.759617184,81.18990124,28,Masonry,Raft,1.036074592,3.684314407,58381.45948,7315.999288,23946.96888,Braced Frame,1.904001218,1.502037441,1382.818104,1.849473179,0.869991369,86.99913689
Low,0.328249472,1.133977459,0.449079653,0.441549277,Rock,2.123710539,7.366713991,60.05098318,9.763188894,189.5799494,11,Masonry,Deep,0.682374844,7.71571435,511429.6104,6745.996684,21278.58848,Moment Frame,3.699148773,1.344048062,2868.737994,4.686825006,0.008679242,0.86792416
Very High,1.200687913,0.622954444,0.262999621,1.468702655,Sand,0.933502752,5.227369622,28.22294001,9.574218512,53.09039742,6,Composite,Shallow,3.743272291,9.91148691,845787.098,5919.272481,29326.65047,Braced Frame,2.524939641,0.560845526,4736.68624,4.228205234,0.710486068,71.04860683
Low,1.128221505,1.447933843,0.353932177,1.545225649,Clay,1.709353412,8.576322255,8.884867774,0.698321795,135.3303369,25,Concrete,Deep,3.589386937,9.998350474,258662.3159,9974.978725,13603.47026,Shear Wall,0.188526512,0.518730906,1530.867161,4.553209488,0.294512255,29.45122554
Low,0.638097054,0.615834805,0.126834266,0.591555569,Soft Soil,2.002552867,6.823115204,43.5306716,4.488209071,149.3291318,1,Concrete,Raft,4.934541928,5.801317734,383647.19,9814.362123,18318.39117,Moment Frame,3.08204983,0.933642178,1561.686298,1.543014304,0.20839748,20.83974802
High,0.13527078,1.818062254,0.223916508,1.718842133,Clay,1.759303343,5.191871904,55.87793721,1.943824889,92.3850964,25,Masonry,Shallow,2.705712405,8.439002171,69542.89145,5612.093692,11477.92753,Braced Frame,4.169251993,1.468609639,2431.839313,2.911284565,0.012137997,1.213799682
Moderate,1.274596259,0.811971744,0.062601483,0.184762249,Sand,2.447078786,8.647770013,33.54585285,4.904914482,187.8175674,2,Concrete,Pile,4.166791658,9.912248811,978081.1385,4824.2418,29018.68974,Moment Frame,1.260328673,0.19671634,4596.784559,1.675102638,0.896590621,89.65906206
Moderate,0.115985177,1.144750269,0.103784038,0.354845731,Sand,2.6214349,7.908610728,72.32293652,8.318754706,148.6480634,32,Concrete,Deep,2.966911321,4.372056009,113319.2073,4890.091766,35171.99052,Moment Frame,1.1832124,1.8971699,2124.3225,1.359047707,0.91224847,91.224847
Low,1.085179691,0.196088897,0.001470764,1.013887935,Clay,2.496734763,7.792673727,64.7332902,9.51105657,94.29529307,13,Concrete,Shallow,4.39561622,3.271686266,903310.0677,4569.252708,34011.23341,Braced Frame,3.083542297,1.090874716,1154.98549,3.074725228,0.061417442,6.141744164
Very High,1.458359954,0.909630352,0.020593261,1.078847201,Soft Soil,0.885388485,7.691313167,33.94901775,6.379101269,116.0203643,33,Steel,Deep,3.660900989,2.028100203,347338.3285,5548.283916,13486.07308,Moment Frame,4.108098454,0.619752706,857.4980292,4.108177365,0.521815323,52.18153231
Moderate,0.712725859,1.681490725,0.488664628,1.196755142,Soft Soil,1.227083295,5.401529195,75.73238036,3.603666105,140.0596215,32,Composite,Shallow,3.285843272,2.268096743,608178.5819,3099.050544,39202.76208,Shear Wall,1.323139655,1.389848549,2312.226078,0.55862925,0.152574459,15.25744587
Very High,0.428962767,1.63073273,0.121934494,0.12884752,Rock,1.98053652,5.449530113,65.22080921,6.0729231,120.4770852,24,Masonry,Shallow,2.912588821,8.682007273,695349.763,9304.49344,13541.7296,Shear Wall,4.668086991,0.099004374,4013.353307,1.451266931,0.758687555,75.86875546
Moderate,1.086819414,0.526205262,0.331992044,1.732623517,Soft Soil,2.856608489,7.597318493,64.10709249,3.18881293,176.3460288,27,Masonry,Deep,3.670258517,6.298507813,183787.7091,5157.185774,8365.266012,Moment Frame,4.644198048,0.973949862,1492.194403,1.105157486,0.665391472,66.53914718
Very High,1.243979399,0.529550235,0.41971075,0.175799758,Clay,2.636904905,5.488752375,55.78934238,9.107254044,74.59328914,4,Steel,Pile,2.214338445,8.863382579,471571.4089,8499.074212,18140.62869,Braced Frame,1.082629692,0.977079598,2586.987064,4.011915848,0.297130813,29.7130813
High,0.865002443,1.652880093,0.275779569,0.34320532,Sand,2.653575918,6.474022636,2.127577141,8.716964585,63.47771931,24,Composite,Shallow,0.663567587,8.105095801,359192.7952,5015.384909,30289.46037,Moment Frame,1.392543619,0.332330817,3034.890948,4.673523158,0.116960281,11.6960281
Very High,1.453849385,1.867756998,0.077419106,0.12382468,Rock,1.467058026,8.019008215,69.95421116,5.626494328,46.69858345,23,Masonry,Shallow,0.391933418,7.06370167,103772.3423,7323.757602,7958.089121,Shear Wall,3.532934174,1.676401754,2279.828538,0.49171928,0.831220663,83.12206628
High,0.17233621,0.28118575,0.364330102,1.063659337,Rock,1.744785374,8.027786331,38.22813732,3.315509262,12.36767877,29,Concrete,Shallow,2.499313912,6.483809727,841533.9717,3700.378663,32756.26849,Moment Frame,4.763492234,1.595656116,998.8666947,1.958145732,0.674252479,67.42524793
High,0.806713838,0.955111415,0.300525454,1.684853703,Sand,1.835553084,6.539677976,94.31836131,3.004557788,13.38772305,34,Masonry,Pile,3.076599595,1.435050138,92909.36867,6435.665148,43290.33182,Moment Frame,3.578425175,0.313937465,4612.641106,4.581094309,0.006819945,0.6819945
Very High,1.105835526,0.74116313,0.365894044,1.232110182,Soft Soil,1.146217483,8.064854722,81.98049234,0.430838148,174.6607627,21,Concrete,Pile,0.578475347,8.850476764,670595.0615,5234.528732,15363.885,Shear Wall,2.280010244,0.734016314,2848.973714,1.788727281,0.627871781,62.78717809
High,1.30769666,1.754308065,0.385103565,1.498517696,Sand,0.868349887,8.273798083,59.18175248,8.176626425,137.2866635,30,Steel,Raft,1.577137035,4.760578555,348373.5076,3987.585437,23060.12419,Moment Frame,0.928106597,0.209854818,3659.2152,3.592041038,0.810296028,81.02960277
Low,0.350957857,0.258697338,0.487729773,0.122578046,Soft Soil,2.883186379,7.446490881,25.9660162,4.558793809,133.803821,26,Concrete,Deep,1.745754589,6.038081714,232522.8608,8874.78448,12187.21086,Moment Frame,2.358948259,1.698731426,3198.412877,0.593265294,0.59076806,59.07680596
High,1.220004874,0.501139291,0.287208077,1.021426007,Sand,1.329567688,5.527916335,21.16802193,3.318815991,124.8553497,20,Masonry,Pile,2.901418569,1.197581517,683731.7488,1570.760986,18701.82472,Braced Frame,3.073162181,0.653407006,4990.337708,2.277498905,0.424713677,42.47136767
Moderate,0.873789906,1.529689841,0.171478915,0.881257062,Clay,1.327887588,5.733053012,34.69809893,4.763992514,170.5977332,16,Masonry,Deep,1.536715789,9.424661517,595810.8288,5125.769909,2076.557969,Braced Frame,1.721664403,0.884239453,2308.735165,2.5661738,0.583918379,58.39183785
Very High,0.655175155,0.197458313,0.324583814,0.948245505,Soft Soil,0.983433918,5.916785199,48.18022641,8.205506106,98.6520505,3,Masonry,Raft,0.659113278,9.12466415,349493.4445,2346.506196,47734.70041,Shear Wall,2.600263324,0.654505181,2153.613248,3.812553982,0.619712057,61.97120567
Low,0.28440104,1.035817223,0.035151914,0.222762415,Clay,2.842717054,5.025618485,30.31048549,1.333680656,174.7301116,49,Steel,Deep,0.991312357,5.889502269,537312.7108,8680.023367,21378.62045,Shear Wall,0.738049229,0.626951773,1832.692337,1.515240788,0.640034624,64.00346239
Very High,1.311414062,0.940003366,0.448801262,1.263540114,Rock,2.075421653,5.729218292,51.97802004,8.590794284,75.09178011,37,Steel,Pile,1.034949448,6.195804699,283925.2461,2907.958775,39654.63538,Shear Wall,2.315721712,1.497131485,1840.060874,1.394524005,0.967045054,96.70450539
Moderate,0.320182491,0.73536224,0.060571125,0.955474705,Sand,2.267481086,5.442836509,17.37167213,8.985337468,185.7079633,40,Composite,Deep,4.244935732,7.345154912,870511.6361,6517.588231,7989.52843,Braced Frame,0.544801513,1.497656806,1415.062543,1.584541584,0.178647788,17.86477876
Moderate,0.533703003,0.849687399,0.164593576,1.400753045,Rock,2.805469152,6.548979374,97.79356847,9.472408359,141.2381111,44,Masonry,Pile,1.564734497,3.382254068,348127.8413,2072.853393,40805.39716,Shear Wall,0.340534875,1.040398459,4904.119119,2.822912893,0.623093127,62.30931273
Moderate,0.506063745,1.106887115,0.408056945,0.924994078,Rock,1.560364372,8.587968965,11.68453094,4.035131125,55.14954152,25,Concrete,Deep,3.630520323,2.997240604,282895.3781,4346.67986,43147.21824,Shear Wall,4.300475586,1.318657729,4360.37107,4.392421626,0.18799332,18.79933196
High,1.319979648,0.406597981,0.299058877,0.353948782,Rock,2.167316085,4.970161425,93.26246983,2.24969,114.9965597,23,Steel,Pile,2.925625982,7.066206519,764242.0255,9043.893359,36058.37931,Shear Wall,1.104899762,1.028209763,1617.531375,4.171612843,0.20995672,20.99567202
High,1.041784192,1.186792169,0.197424125,1.202036822,Rock,0.8853588,7.741205658,91.44422313,3.799044103,108.9409595,44,Masonry,Pile,4.889786017,1.939802015,66712.86359,2077.612222,45257.20792,Braced Frame,2.918261113,0.066892528,1560.883771,0.383933716,0.669257884,66.92578837
Very High,1.215353956,1.630321426,0.237244394,0.393056816,Sand,1.210899562,7.59277352,53.0106877,3.395829753,31.89027024,1,Masonry,Deep,1.509548811,5.086558043,304611.1455,6800.360341,9192.659344,Moment Frame,0.830015516,0.141352802,562.4932366,4.406880045,0.915954085,91.5954085
Very High,0.450655058,1.544305767,0.427419149,1.583070758,Rock,2.628740771,4.930893894,72.76611691,1.843923734,120.2923666,33,Steel,Raft,0.960190499,5.434843816,406625.4596,2442.84852,24347.60961,Shear Wall,1.386385097,0.773643733,4391.30276,0.566035934,0.159044247,15.90442471
Low,0.974823739,0.392409819,0.170662189,1.142297606,Sand,2.486890384,8.651575822,44.1687815,6.111940034,66.38319662,15,Composite,Shallow,0.449781621,4.432032792,888126.0637,4449.615999,31385.36707,Moment Frame,1.870563157,1.501995254,1890.241952,2.13520554,0.962465534,96.24655338
Low,0.900444376,0.383573993,0.434955193,0.367246602,Sand,1.571413921,7.05812491,63.37342318,4.818579189,15.20800953,17,Steel,Raft,1.356606379,2.667413581,952919.7124,5635.860402,30213.45556,Shear Wall,0.804014538,1.827320194,2884.446191,3.850481752,0.319372326,31.9372326
Very High,1.265962528,0.609531299,0.044979081,1.735974698,Clay,1.628983381,6.136764845,34.7170178,8.670439824,189.9879508,34,Steel,Deep,3.483540255,4.197846379,730654.0686,5984.410973,43191.00579,Moment Frame,0.325215255,0.069119528,4506.869758,0.499404077,0.391314043,39.13140435
High,1.368521885,0.78604198,0.38862242,0.981221288,Soft Soil,1.973819754,7.904423626,30.81474296,0.417884847,130.090622,17,Concrete,Raft,0.609239478,4.038015282,517905.192,6223.857707,11568.87703,Braced Frame,4.39808303,0.742379805,2070.09821,0.297958433,0.153680824,15.36808239
Moderate,0.11701948,0.876065605,0.423926269,0.223927368,Soft Soil,0.80053021,5.658144563,58.24474883,6.474292483,175.9991917,41,Concrete,Pile,1.374568857,5.493391072,658590.4716,6581.248446,9606.547794,Braced Frame,0.157980896,0.455327048,4043.996815,1.716979438,0.615836106,61.58361059
Very High,1.043627887,1.391424712,0.091727009,1.165615938,Sand,1.330737539,7.620794267,50.31483774,7.653193897,136.830921,44,Composite,Shallow,4.305480167,7.072127574,443300.9991,3081.802628,13415.55115,Shear Wall,0.400472816,1.63225851,2179.91385,3.676635479,0.596420495,59.64204946
Low,0.172570119,0.207692821,0.21574292,0.530438142,Clay,1.258109979,4.678700434,58.37410055,7.618917035,74.61181997,4,Masonry,Deep,2.998174157,9.714116112,333884.5403,4312.991114,44685.95242,Moment Frame,4.044853588,1.693476608,3519.657648,2.656606544,0.442269743,44.22697431
High,0.868402131,0.165878138,0.083584388,1.466278868,Sand,1.351062483,8.277336169,29.37939755,8.872132274,104.9741741,13,Steel,Deep,0.533703393,2.297469342,953153.6647,854.527304,47110.32705,Braced Frame,1.48184085,0.420753647,2184.362816,2.143309166,0.47609139,47.60913899
Very High,0.502685821,0.84463007,0.35359546,1.490297525,Sand,2.572992854,6.516768812,37.32882535,7.317434054,136.7706183,4,Composite,Deep,0.428879092,8.857153989,159620.7176,7803.191277,28911.87511,Shear Wall,3.641819475,1.424546234,1994.157716,4.084059256,0.622975876,62.29758758
Very High,0.529487239,1.424611015,0.268138536,1.764210505,Sand,1.415282484,7.365118115,9.305898102,9.28531961,192.2492034,7,Concrete,Shallow,0.493389802,3.557602004,379073.8896,8452.445267,25567.22479,Shear Wall,0.816506171,1.466194514,4954.010736,3.856875385,0.583496535,58.3496535
High,0.594141905,0.467527152,0.31802635,0.953178203,Clay,1.221346909,5.495570189,6.175360855,3.393300338,54.46554453,46,Steel,Pile,4.721000241,6.32235493,904134.512,2392.749253,30663.89479,Braced Frame,1.262680568,0.362344817,3081.131718,3.951611728,0.374263382,37.42633816
Very High,0.969809429,1.318858514,0.099046997,0.873426696,Soft Soil,1.909379614,7.546831707,26.09225584,5.081773226,175.6205264,9,Masonry,Deep,4.279382857,5.920632532,736984.3591,2413.717664,31199.07484,Braced Frame,2.906604931,0.873054875,1868.586349,2.352661437,0.884114385,88.41143853
