Seismic Zone,PGA (m/s²),PGV (m/s),PGD (m),Spectral Acceleration (g),Soil Type,Site Amplification Factor,Historical Earthquake Magnitude (Mw),Fault Distance (km),Seismic Wave Frequency (Hz),Building Height (m),Number of Stories,Structural Material,Foundation Type,Natural Frequency (Hz),Damping Ratio (%),Mass of Structure (kg),Axial Stiffness (kN/m),Bending Stiffness (kN·m²),Lateral Load Resisting System,Predicted Max Inter-Story Drift Ratio (%),Predicted Max Roof Displacement (m),Predicted Base Shear Force (kN),Predicted Structural Acceleration (m/s²),Predicted Damage Index (0–1 Scale),Predicted Collapse Probability (%)
High,0.567669952,0.593673462,0.106661185,1.380908529,Clay,2.70441908,7.975081242,8.350439074,0.239388667,185.195172,23,Concrete,Raft,4.255712202,6.012535768,77646.37876,899.3458208,9344.930542,Shear Wall,4.944315609,1.244472233,1326.206412,0.195301288,0.667660523,66.76605231
Moderate,1.125778671,1.783563607,0.021707165,0.325200116,Rock,1.330969348,6.629459341,11.27369615,0.168880114,135.7310254,33,Concrete,Deep,4.636240459,7.510227505,71944.68975,9718.646317,34634.1332,Moment Frame,0.459877904,0.061872548,246.8435326,0.94347117,0.205406331,20.54063306
High,0.66633834,1.801810894,0.1617117,1.029756373,Clay,0.972779734,7.279771158,81.47991213,2.477253542,186.5969923,33,Concrete,Deep,2.625225873,4.435194752,540686.8395,8168.272397,23165.20402,Moment Frame,2.06271753,0.815137748,3547.503384,3.732372099,0.319902994,31.99029935
High,0.19569448,0.664845688,0.280312586,1.02862092,Clay,1.584090419,6.553466657,4.848496005,1.097991252,82.58632456,20,Composite,Deep,1.387254421,3.871899669,510040.4034,3926.680428,26351.71598,Moment Frame,0.311096753,0.318366884,1892.17927,3.790550012,0.787878102,78.78781017
High,1.197263779,0.536988133,0.429109522,0.252104309,Clay,2.444834014,8.523411162,66.2353366,2.676092543,190.8381543,4,Masonry,Deep,2.12647042,8.675511159,470841.9617,5078.128579,2485.513612,Shear Wall,1.076209569,1.088374037,4115.208111,4.864263202,0.104525381,10.4525381
Very High,0.500061654,0.881477547,0.333796796,0.810572945,Clay,2.011519198,6.740411312,27.98321713,1.852728616,142.042661,1,Steel,Pile,3.65054755,2.980855362,337226.5737,3273.686126,38463.27499,Braced Frame,4.546608032,1.687405991,1851.14888,1.031913982,0.750231999,75.02319987
Very High,0.705873631,0.557010012,0.218262765,1.550584158,Soft Soil,2.596945413,8.288139191,87.28302239,0.382348246,13.19112465,42,Composite,Raft,4.404957783,2.622214336,987306.7838,6173.817699,41935.9701,Shear Wall,0.572654509,1.054260338,1897.979503,0.702341262,0.358842441,35.88424411
High,1.059621437,1.377529302,0.476606937,1.555461157,Rock,2.911102725,8.106084262,49.01423617,9.102111049,181.8402022,34,Composite,Pile,2.288436448,1.14046693,308387.9568,7314.429917,31351.65614,Braced Frame,4.298594015,0.081607356,3906.945982,0.780069205,0.551691046,55.16910461
Very High,0.56543862,1.669522901,0.359903355,0.26870403,Soft Soil,2.543857449,6.347271696,31.25206947,0.181409001,99.47219776,27,Composite,Raft,2.769828586,2.895200038,515538.1961,4750.000541,37687.45813,Moment Frame,0.971235867,0.069017919,2472.859951,1.005461764,0.280558117,28.05581172
Low,0.179219919,1.378875049,0.465152436,0.254225501,Soft Soil,2.128366773,5.535380213,52.24625463,7.387213229,94.76376203,21,Concrete,Deep,4.672558368,5.6667829,434648.442,8799.144836,26612.59416,Moment Frame,4.322745748,1.21495126,4430.229114,2.689494864,0.986456572,98.64565718
Low,0.623489466,1.66626585,0.264266399,0.546582311,Clay,1.885351494,6.327369597,38.81384389,1.606264081,115.4609882,24,Masonry,Shallow,0.715993458,5.846579857,211736.9547,5411.745691,31299.31557,Braced Frame,2.736307619,0.662683301,2971.171996,4.878536169,0.905840292,90.58402921
Very High,1.422228016,0.854285108,0.130193233,1.587102306,Sand,0.88815199,8.217978191,56.8658054,9.131073258,34.12998662,15,Composite,Pile,4.339036241,3.289784421,242487.8782,1870.406056,20334.01322,Braced Frame,4.403212704,1.149606342,1241.191827,2.988214267,0.928449837,92.84498369
Very High,0.998428156,0.397002244,0.027360516,0.319134395,Sand,2.965508353,5.524346411,12.33875396,8.938679802,96.48737947,35,Steel,Shallow,0.964675915,1.65046753,922387.6049,6411.76807,39801.83899,Shear Wall,0.843347859,0.335637847,2862.945679,2.661171522,0.184775518,18.4775518
High,1.040070808,1.5021068,0.363316341,1.323994564,Soft Soil,1.64365847,6.859963556,99.70205978,6.573621349,167.0698073,25,Masonry,Pile,2.522534481,7.701767167,865365.7367,4891.194176,23945.27558,Moment Frame,3.833979101,1.555956082,69.80829588,3.399445529,0.841690096,84.1690096
Moderate,0.985195015,0.78490156,0.061530196,0.271981553,Soft Soil,1.134902071,8.127435366,43.13003189,6.755118083,8.019079532,9,Steel,Deep,1.248431018,7.821778137,239092.0905,9388.882699,34330.43232,Shear Wall,3.435423121,1.722832214,1596.367005,0.462258915,0.535397101,53.5397101
Very High,0.378588995,1.375414568,0.152084789,1.159334351,Clay,2.266759482,6.090648638,35.47483333,0.152857505,58.21884626,17,Masonry,Pile,3.094148627,9.980527567,881879.4927,4222.992249,31450.03955,Shear Wall,2.760373598,1.779558948,1079.364085,4.095235257,0.7078592,70.78592003
Low,0.68566741,0.61422349,0.266702983,0.705314409,Soft Soil,1.425434236,7.389943367,71.31077498,9.850228505,5.478644357,21,Steel,Deep,2.881152424,9.100266135,248726.8236,4327.224522,35413.4114,Shear Wall,4.071877988,0.615108432,3288.229885,3.269709762,0.217504067,21.75040667
High,1.151315718,0.254336306,0.282643877,1.441153737,Clay,2.088712196,5.605342083,37.02604124,8.790542775,86.06370528,13,Concrete,Pile,2.024035348,9.334558581,645219.0057,6682.347203,39475.57788,Moment Frame,3.27655252,1.324863382,723.3909883,0.93883923,0.711984646,71.1984646
Very High,0.241922057,1.985905411,0.300691015,0.497273763,Sand,2.090889397,4.991757504,83.4941562,8.961551635,147.0215245,3,Composite,Deep,4.343856871,8.183834432,127216.4972,5506.369074,26122.9606,Shear Wall,4.397529931,0.56529435,1485.982361,3.190505564,0.914267245,91.42672446
Low,0.488993887,0.396782865,0.08396141,1.18664311,Sand,1.780605606,8.074729013,45.97280171,6.626520917,160.7605067,4,Steel,Deep,3.367103937,6.53952568,886351.1449,4057.273837,40840.23151,Shear Wall,1.967204519,1.527886073,1689.977344,3.021419017,0.267481386,26.74813858
Low,0.486846752,1.977999889,0.190488965,0.500660309,Rock,2.639460954,4.945358805,72.23628291,3.513390594,189.3120034,4,Masonry,Raft,3.6617846,2.156913618,98925.28449,9902.856949,25365.60463,Shear Wall,2.990623574,0.249844754,66.30148288,0.417779629,0.233359852,23.33598515
Moderate,0.704826499,1.956831872,0.308979919,1.313222481,Sand,1.382927535,5.721216278,11.63786843,8.947121626,123.6583995,43,Composite,Deep,0.923166743,6.600819677,577195.7448,3370.762345,47875.08182,Shear Wall,4.365944129,1.527901974,281.4945129,1.407967769,0.104414548,10.44145485
High,1.472516237,1.608254397,0.484939613,1.585252659,Soft Soil,1.786991702,8.347992399,84.76579937,2.986017589,54.652239,28,Composite,Raft,4.439195254,1.503602744,790725.9489,3136.523524,37880.91568,Shear Wall,1.152588914,0.885059989,1590.074333,2.015613952,0.266806675,26.68066753
High,0.194503565,1.352903628,0.364087938,0.315563059,Sand,1.982922683,6.059111792,73.83608069,5.670844279,185.2088501,7,Masonry,Deep,1.001792785,8.967692001,160992.9996,8712.062471,9385.940838,Shear Wall,2.480132647,1.712543486,1150.664443,1.299953794,0.535792262,53.57922618
Moderate,0.826181392,1.197833395,0.461379275,1.573212671,Clay,2.259974386,8.878704073,21.95996107,1.087336626,156.186572,26,Steel,Shallow,1.269367828,5.336392019,434256.2541,532.0429637,41649.6391,Moment Frame,4.807634926,1.480472411,628.6883561,1.29149227,0.832716291,83.27162914
Moderate,0.351110555,1.745592936,0.381343817,1.109077933,Sand,2.524738071,8.908804506,15.38331496,9.227360738,117.0135542,11,Concrete,Deep,0.814664665,7.277255488,89852.64392,2411.905029,28027.79538,Shear Wall,2.420648827,0.759274085,813.100199,2.907447521,0.278800263,27.88002627
High,1.458947164,0.649935091,0.296266767,0.316087834,Rock,1.668576022,5.707242092,32.31294252,1.493627532,140.6498421,24,Concrete,Shallow,2.313724198,1.470192973,698614.9485,6109.243538,49238.58694,Braced Frame,1.338864281,1.808042979,4185.907959,2.407209184,0.621144389,62.11443891
High,0.258624907,0.988594304,0.096819661,0.826821154,Sand,2.221303277,4.684402,97.63098802,2.326478377,185.2416892,43,Steel,Shallow,4.461004312,5.808235806,342077.1152,2043.280015,36222.13314,Shear Wall,1.82027357,0.573840907,3432.431899,3.36973169,0.479590699,47.95906992
Very High,0.665041403,1.276840942,0.33367614,0.373462499,Clay,1.131344097,7.672784779,26.42632588,5.625528165,143.9168356,10,Composite,Deep,1.411748094,3.711370581,581425.4824,9865.137266,5135.146582,Shear Wall,4.436912185,1.934307377,2446.381778,4.786394727,0.288579041,28.85790406
Very High,1.133038979,0.881261904,0.312066403,1.290591411,Clay,2.851825821,6.529439262,46.15659369,7.664520702,76.83302898,37,Composite,Shallow,1.994016418,3.564714392,936095.6569,4909.858413,20353.06095,Moment Frame,4.77892689,1.536734734,4548.930142,3.336724619,0.510359081,51.03590812
Moderate,1.086376199,0.912224263,0.301632116,1.390075829,Soft Soil,1.642729374,4.953387798,3.972002346,6.231577929,144.0404994,13,Composite,Raft,4.261118816,4.506903232,340565.2026,6174.958712,26346.49473,Moment Frame,4.755527449,1.981442954,196.2863152,2.952270068,0.167962396,16.79623964
Very High,0.691820092,0.727540868,0.245403148,0.279854084,Sand,2.404947128,7.683852685,40.32552543,2.398125737,12.85424173,44,Composite,Pile,3.165513343,1.005755148,96196.09805,2023.547918,42111.66655,Braced Frame,3.524817721,0.117270187,1757.427933,4.253041509,0.63957756,63.95775598
Low,0.585133835,1.172040452,0.264799645,0.96043775,Clay,0.84475038,4.640287091,57.56068153,0.109336121,80.35103456,42,Steel,Deep,3.80775869,5.199947935,691846.3793,3249.091958,36737.93118,Braced Frame,2.597049255,0.555331731,4125.749402,3.197158242,0.115662721,11.56627212
Very High,0.65665733,1.716091603,0.167886821,1.484862595,Rock,1.251411714,8.415885107,95.35933664,7.595790745,84.23299121,39,Composite,Shallow,1.227200237,5.379100152,797499.0778,6338.935435,19098.64346,Moment Frame,0.995175781,1.48511587,3160.030523,0.911250225,0.730980525,73.09805251
Very High,0.469986768,0.482903918,0.260137034,1.691477171,Soft Soil,1.871581598,5.123936381,52.15686845,9.853552527,37.53345571,19,Masonry,Deep,3.639151344,8.768178243,959975.1319,5720.757046,33018.20169,Moment Frame,0.703782959,1.845276905,4909.352801,1.642268627,0.177712678,17.77126784
Low,0.387466114,1.875422774,0.099580397,0.972980373,Rock,2.732155429,5.072903454,82.09162529,8.118139891,9.501668708,19,Composite,Raft,1.292530777,5.036730471,199910.8332,7951.457482,29268.63449,Shear Wall,0.392856377,0.067253926,4725.34887,3.693465385,0.998159153,99.81591533
Moderate,0.776255577,1.409266542,0.402782024,1.71547468,Sand,1.95996133,5.290525341,55.16563661,4.65604552,31.00934114,12,Concrete,Deep,4.939107115,4.272006645,422532.9289,3057.715196,7176.577839,Moment Frame,0.186803057,0.010018499,891.2153308,3.718073677,0.823672595,82.36725948
Low,0.475947258,1.664219104,0.0937027,1.01067125,Sand,2.845715061,8.821198613,5.03771633,9.047295888,132.6511917,22,Composite,Deep,2.887453549,9.952723462,851933.437,6708.650394,12508.07596,Braced Frame,4.402771938,0.519922832,4861.335636,4.936342877,0.343840304,34.38403039
Very High,0.502446331,1.156762316,0.043398179,0.770123841,Sand,1.864353172,7.619262121,32.18581924,4.157491964,161.4463192,47,Steel,Shallow,3.539068439,6.140919921,816527.8236,3264.267305,17714.99332,Shear Wall,4.064522947,1.707029566,4730.397191,3.172176904,0.426204772,42.62047723
Moderate,1.019458489,1.581081733,0.218686767,1.541945319,Soft Soil,1.878988013,8.10617191,57.97940128,5.296847434,197.6996811,37,Concrete,Raft,0.768327604,5.253518878,643555.922,6074.149888,10578.68691,Braced Frame,2.882324764,1.536634673,1899.374178,4.507771422,0.259191021,25.91910211
Very High,1.455952264,0.130780755,0.329495412,0.938070608,Clay,1.063442935,6.289357436,95.10880263,4.823584697,72.54088311,30,Steel,Pile,1.403148704,5.463422511,305900.1179,6247.794193,8356.558446,Shear Wall,4.993743947,0.68715215,4915.257444,0.367443522,0.767114561,76.71145612
Low,0.945092081,1.654922807,0.219420696,0.902234268,Soft Soil,2.565843737,6.013407274,86.05390562,4.531476339,121.8789483,46,Steel,Pile,0.870755166,8.282631678,319833.5261,1657.471558,3851.690736,Moment Frame,4.769955154,0.014002416,227.428554,2.87448949,0.38072697,38.072697
Low,0.207771254,0.176263832,0.139100312,0.933531232,Rock,1.343323907,5.555178031,23.6072058,7.774388616,187.7432685,12,Concrete,Shallow,2.072819433,4.066087321,167802.8449,5712.014552,43782.02571,Braced Frame,3.310033957,1.113864424,3320.715247,4.607255321,0.75518551,75.51855098
Very High,0.205817059,1.790835415,0.279527421,1.539534503,Soft Soil,2.779147477,6.662916127,22.79087317,5.315012182,37.57314736,29,Steel,Deep,1.563852148,4.502444164,925760.9901,613.4138496,15158.22748,Shear Wall,2.376415378,0.483531388,1367.431631,1.507496752,0.018401555,1.840155468
High,1.431992509,1.98472922,0.174154165,1.514300621,Rock,2.803813285,6.983229301,20.91612374,3.235499508,144.9408893,21,Steel,Shallow,3.718026846,7.802860234,214284.9389,5261.502138,15225.70959,Shear Wall,0.845636509,1.493761768,690.8423281,0.858895359,0.13562096,13.56209595
High,0.516207106,0.658728178,0.466500977,0.785983987,Soft Soil,2.875282246,7.342986796,92.32739073,2.65576586,152.220853,11,Composite,Shallow,0.721803102,1.656853657,594242.2711,7126.457942,11105.17873,Moment Frame,2.626409646,0.898235832,2908.797878,1.817499784,0.364974335,36.49743347
Low,0.228893781,0.499605257,0.461399925,0.666609762,Clay,1.944507076,5.657033268,85.41394916,0.473698438,22.35022949,37,Masonry,Shallow,3.809884969,8.786522423,605133.8461,1191.910925,24294.47122,Moment Frame,0.872943997,1.360417827,1566.434026,3.981957219,0.108908533,10.89085334
Low,0.938662422,1.554190391,0.251683538,0.936277641,Rock,2.289606327,8.768943364,77.71345979,5.873632103,172.9436301,48,Steel,Deep,0.419383158,4.871824268,401125.1691,9417.752756,26197.85643,Moment Frame,2.052411391,1.706094571,3350.785452,0.515033992,0.601127992,60.11279923
High,0.97310829,0.580750048,0.164614113,1.073713267,Sand,2.512734936,5.263913242,39.88077631,2.376618012,163.5554842,18,Steel,Raft,1.169685619,6.23163678,384892.538,4858.177554,11205.78657,Braced Frame,4.718975731,1.076162001,2722.906208,3.041659426,0.050832099,5.083209853
High,1.007906748,1.744568528,0.368829075,0.505173258,Sand,1.088232161,8.845439286,50.93368973,1.566525828,11.51358628,44,Steel,Shallow,4.001431961,7.817285433,685158.9976,9414.954618,30819.94656,Shear Wall,1.775697048,0.678551526,1993.317534,0.764594869,0.859762995,85.97629946
Very High,0.474362839,0.295400925,0.019319759,1.449723644,Soft Soil,2.122105829,4.566852551,46.96884273,6.572916642,22.7614609,27,Composite,Deep,3.765327877,3.394467302,418882.8891,1520.285025,36426.99802,Moment Frame,0.848657641,1.541391657,950.0196985,2.234108964,0.761307999,76.13079988
Very High,0.121154958,0.339314873,0.237909734,0.927020702,Sand,0.875455383,6.665065613,26.08641265,6.843971652,14.57974431,37,Masonry,Raft,2.486365347,9.012827875,292359.6237,9524.074647,19318.16421,Braced Frame,2.953743361,0.537722607,3026.188477,4.833287308,0.216256479,21.62564792
High,1.451021517,1.960387955,0.168825374,0.667877432,Rock,1.894645383,6.000155272,50.99777657,7.546333433,70.2749887,48,Concrete,Shallow,0.439917032,9.81302475,429175.1173,1537.372445,29687.13315,Braced Frame,3.051584453,1.784122444,4154.691616,1.056206922,0.483791906,48.37919061
Very High,0.451250264,1.380293907,0.460347407,0.281595688,Sand,1.1406539,6.521055363,4.019158237,5.085411274,104.3113532,12,Composite,Pile,3.12748996,5.448469253,817278.9738,4884.210085,25612.79335,Braced Frame,1.049640788,0.152141017,3020.022119,0.266681089,0.451813078,45.18130784
Very High,1.046436803,1.709085726,0.006989511,0.506036773,Clay,1.202430437,7.067990605,14.04922698,8.951140592,108.807807,23,Composite,Raft,2.152275699,9.432436285,968154.5324,9410.924634,10581.87152,Moment Frame,1.063274279,1.672582596,3072.086651,2.193296361,0.724864615,72.48646153
Moderate,1.089281818,0.716225817,0.276854623,1.713777992,Clay,1.603104647,6.460151211,88.77237002,9.369793259,57.19501816,34,Masonry,Shallow,1.719335121,1.010157603,654152.7189,2710.727904,36770.53845,Moment Frame,4.948793977,0.192195897,2583.594953,2.93070838,0.4015089,40.15089005
Very High,0.954010384,1.385319124,0.370591127,0.618669468,Soft Soil,1.751361767,6.366810826,75.41629694,8.092972304,182.7613929,38,Masonry,Raft,3.273971057,9.048140467,792996.1642,830.4573182,40271.19836,Shear Wall,1.292077257,0.121712591,1971.788581,1.557836902,0.032935298,3.293529783
Low,0.538070352,1.229059472,0.243023976,0.387060792,Rock,2.170979334,7.797255369,42.8639725,6.392375472,76.81124403,23,Composite,Raft,2.295749899,3.799407878,556183.6182,8034.551413,32790.86266,Shear Wall,4.20714097,0.732881305,2314.417306,2.754663217,0.273735859,27.37358588
Very High,0.479534755,1.245985228,0.043616112,0.883143746,Clay,0.963742521,7.586443238,52.19788587,3.106837441,13.88228041,25,Concrete,Raft,0.643621282,3.803458823,643581.985,6160.894558,16870.90536,Moment Frame,2.404586745,1.913533215,4948.231698,4.771669537,0.466195805,46.61958052
Very High,0.936735596,1.396811673,0.486258234,0.622049164,Clay,1.908121875,8.249720769,37.62988971,9.831154724,63.54428675,4,Composite,Raft,4.596562258,3.052799783,988682.3239,5382.251333,46412.83223,Braced Frame,2.231447271,1.967137248,3760.859085,1.627676858,0.974492216,97.44922162
High,1.312533887,1.193182429,0.259487205,0.159770725,Rock,1.201775287,5.624815416,74.33720685,2.813948055,108.5663374,30,Masonry,Raft,3.936766877,3.85312511,466497.9215,826.2621514,23312.56101,Braced Frame,1.545315839,0.412120297,2181.269347,1.616192453,0.881158667,88.1158667
Low,1.42542722,0.915218502,0.307478936,0.649346869,Sand,2.062745385,7.242878294,78.63453074,2.106303528,84.6032554,30,Concrete,Raft,0.470615318,2.921361253,112941.9621,6705.697054,14028.04578,Braced Frame,3.891746405,0.305788736,2313.61718,2.4655627,0.181406144,18.1406144
Very High,0.248268126,0.624253119,0.119068282,1.024984661,Sand,2.202290147,7.133376534,76.56523383,4.477325726,58.39929122,13,Masonry,Shallow,2.720306577,9.152821957,959156.5719,2130.421843,21003.49642,Shear Wall,4.415238304,0.71237713,2523.178438,2.625050046,0.72327594,72.32759405
Very High,0.316760058,1.560304529,0.242265544,1.037911032,Soft Soil,2.024760364,6.163820149,72.53856076,0.66272165,30.6080337,42,Concrete,Pile,0.600212302,9.091213545,803408.6349,9346.368462,34911.6795,Braced Frame,1.379524562,0.680802813,3313.605262,0.106693037,0.936825473,93.6825473
Moderate,1.422630762,0.529917617,0.215145596,0.706150166,Sand,2.424250123,6.687258939,21.24592953,9.7870952,164.7370775,49,Steel,Deep,4.218991323,1.919901834,428394.8495,7014.406035,42450.6575,Shear Wall,0.56597368,1.521589837,2356.493259,3.117788143,0.008792613,0.879261304
Very High,1.13114932,1.415473182,0.038373025,0.860414686,Rock,1.538340337,5.912019645,34.45902794,5.925492209,199.2483222,14,Masonry,Raft,3.142467013,2.28572586,983275.3009,7216.821936,18472.19946,Shear Wall,0.770905809,0.893558051,3446.586636,4.987051008,0.720945674,72.09456737
Very High,1.336191355,0.543332363,0.053974016,1.741380461,Clay,2.483234502,5.138299789,47.51469806,5.613825707,69.26071604,47,Masonry,Deep,1.027755841,8.758167751,378258.9628,2709.51259,12398.59785,Braced Frame,3.98473732,1.561968336,1679.479643,1.530839442,0.459333496,45.93334956
Moderate,0.383685688,1.288127323,0.418898787,0.741492411,Sand,1.75208758,5.462105448,33.74850615,6.592383171,79.41610361,8,Composite,Shallow,0.299558445,4.590439938,403514.1862,8867.161462,31698.16346,Braced Frame,2.235551865,1.499939063,2082.666179,3.190969227,0.680236196,68.02361963
