Seismic Zone,PGA (m/s²),PGV (m/s),PGD (m),Spectral Acceleration (g),Soil Type,Site Amplification Factor,Historical Earthquake Magnitude (Mw),Fault Distance (km),Seismic Wave Frequency (Hz),Building Height (m),Number of Stories,Structural Material,Foundation Type,Natural Frequency (Hz),Damping Ratio (%),Mass of Structure (kg),Axial Stiffness (kN/m),Bending Stiffness (kN·m²),Lateral Load Resisting System,Predicted Max Inter-Story Drift Ratio (%),Predicted Max Roof Displacement (m),Predicted Base Shear Force (kN),Predicted Structural Acceleration (m/s²),Predicted Damage Index (0–1 Scale),Predicted Collapse Probability (%)
Very High,0.360590257,0.539623209,0.412174828,0.929430332,Rock,1.384292716,4.701457749,22.21570716,5.592586907,186.7715352,28,Masonry,Shallow,4.474850049,1.352123243,61920.78923,9918.442939,7012.579268,Moment Frame,2.02741709,1.487760437,2077.375964,3.09837807,0.100915984,10.09159836
Very High,0.564190579,1.054611846,0.102839743,0.447235995,Sand,2.487913467,4.743214323,58.92704443,4.286477038,78.03454973,30,Composite,Pile,1.840206498,9.515777738,741063.9505,8255.516797,2827.726845,Braced Frame,3.528463458,1.697396138,176.1231962,0.93968539,0.971716739,97.17167391
Moderate,1.297042282,1.489824083,0.235051333,1.165564471,Rock,1.252952084,6.557536888,44.84849571,5.700940486,20.75194671,40,Steel,Raft,2.429690551,9.976734394,343747.3497,7225.814763,16708.77799,Moment Frame,0.335324399,0.925605565,1137.87099,4.979323933,0.147100011,14.71000105
Low,0.389906133,1.920424217,0.400668422,0.709862268,Rock,1.507710011,6.973300355,4.383383315,3.717969698,80.52177887,23,Concrete,Shallow,4.501889875,9.481861984,405969.1515,1082.801801,14454.01578,Shear Wall,1.739333185,1.193008914,3475.734047,2.68878555,0.766345725,76.63457253
High,0.199621599,0.518847408,0.090899165,1.7925968,Rock,1.824071339,8.495179382,32.64555416,9.367848721,122.0394967,46,Concrete,Shallow,1.508351052,7.038450152,495647.8262,9090.948534,20939.85969,Shear Wall,3.505852564,1.691331235,1048.018499,4.21628919,0.034851362,3.485136164
High,0.19661063,1.783745367,0.055821694,0.916311976,Soft Soil,2.875030869,4.970972853,81.23285844,0.64355842,105.162271,24,Masonry,Raft,4.594404206,7.311071372,455451.4217,8005.525405,48137.14838,Braced Frame,3.981048873,1.628956898,316.8666714,0.831871092,0.624541797,62.45417973
Low,1.417098329,1.875177817,0.4419583,0.926005531,Sand,2.849809134,8.201915672,69.28045195,6.766575642,140.4356849,29,Steel,Deep,4.176798618,2.100276459,539225.0957,2675.738253,26589.23544,Braced Frame,1.03208145,1.318870572,3107.645796,3.363871467,0.546703872,54.67038721
High,0.809688613,1.841199035,0.172121902,1.061948039,Sand,1.255118126,5.445213018,72.7622145,8.923698382,15.8193687,4,Masonry,Raft,4.906678116,8.868673694,603243.63,4226.357723,28105.6586,Moment Frame,3.684286946,1.631903937,2615.856213,4.571826721,0.20800381,20.80038104
High,0.673176901,1.307287278,0.342251192,1.658485205,Sand,1.588081891,6.273376418,70.11357548,8.058458616,60.485419,38,Steel,Shallow,1.756436418,1.536756262,492315.7296,3051.99974,47138.4509,Braced Frame,4.781517301,1.156062409,3818.265889,2.706887314,0.643146143,64.31461427
Low,1.235230013,1.296659243,0.013648954,1.46139077,Rock,1.128678655,5.924710957,31.78632912,1.922006245,164.7499625,29,Steel,Raft,1.331615264,3.85957492,716485.3635,9851.952325,46136.20974,Braced Frame,4.543379535,0.019249856,3874.525373,1.514434297,0.617052993,61.70529932
Very High,1.270156299,0.866100203,0.345333397,0.866921119,Sand,1.921967174,6.300698728,10.86672829,3.029670855,20.57926912,19,Steel,Pile,1.788161106,9.920364806,732671.5797,8614.866226,44321.48574,Shear Wall,3.967942779,0.092120901,4801.679506,0.724366957,0.798351715,79.83517155
Low,0.565067446,1.529555976,0.158734554,1.321788752,Sand,1.813281612,5.177229741,27.97425122,7.198774593,171.8197612,27,Concrete,Raft,4.782319021,4.800950912,468341.2376,9337.140376,5801.742359,Braced Frame,3.590400762,1.959818714,332.2368429,1.55012886,0.875874059,87.58740586
Very High,1.07106528,1.109458635,0.028814686,1.096600348,Rock,2.781672357,6.766065335,83.34674472,0.934278536,22.91973796,29,Composite,Shallow,1.798751821,2.180406016,185339.9907,7993.355246,32080.57312,Braced Frame,1.252177709,0.298534164,242.9976281,1.838932594,0.510104941,51.01049407
High,1.179571942,1.387132335,0.305296568,0.937023983,Clay,2.846011831,8.107391654,98.06660898,8.137430828,167.7185719,36,Masonry,Raft,2.913016736,9.723651958,658606.9753,4835.30829,40596.85004,Shear Wall,3.206125813,0.814987654,4936.625388,3.578780016,0.490295193,49.02951935
High,1.016510962,0.914070017,0.121161104,0.426936814,Rock,1.64384826,6.486903047,49.89085446,7.217178752,75.35373821,35,Composite,Deep,2.137660556,9.857256823,784308.8767,2451.625373,41943.15979,Shear Wall,3.25204257,1.868284437,3241.996995,0.975244894,0.621595771,62.15957709
High,0.312233105,1.489843282,0.194016814,0.888691648,Sand,1.881823475,6.707761092,1.960335137,7.323105827,124.3807673,6,Masonry,Raft,2.101856694,2.683384167,656204.0451,2476.761491,29317.44998,Moment Frame,2.093424527,0.398128575,3591.084171,0.619913793,0.729207589,72.92075892
Moderate,1.326236317,1.666495883,0.041209825,0.517891598,Rock,2.771719748,8.319454134,14.8644364,1.092389566,34.81298755,23,Steel,Deep,1.128217327,8.783234279,608652.0276,1940.987059,1857.281827,Braced Frame,2.515775762,1.689144775,527.5859977,1.996003751,0.356171172,35.61711724
Very High,0.854732374,0.378228888,0.074434462,1.655231655,Clay,2.574757177,7.677261516,32.88597696,7.205829394,17.90290074,39,Concrete,Pile,2.777981796,4.513809936,267941.3917,5693.170728,48711.93218,Shear Wall,3.500739592,1.638352461,395.5728197,2.34740272,0.504641883,50.46418834
Moderate,0.495461397,1.68256646,0.149690641,0.670191583,Rock,0.808043885,6.707044838,58.27994951,6.83019944,47.10794978,46,Composite,Deep,4.277140424,4.43231618,662880.1888,9239.681967,24137.63844,Moment Frame,4.765297525,1.972796013,843.25529,3.179086756,0.585104186,58.51041858
Moderate,0.69531946,1.12656341,0.045789991,1.718848825,Sand,1.504131041,5.659630417,8.434270935,8.326132659,29.93149449,44,Concrete,Raft,0.437528065,3.364278687,368113.4038,9922.081665,20286.19887,Moment Frame,1.547000421,0.570546849,2164.618234,3.566903376,0.988378084,98.83780838
Low,0.152599527,1.704865227,0.455502306,1.006193993,Clay,1.727903332,8.482170361,94.39237257,0.511799967,65.91915005,48,Masonry,Shallow,4.46828765,1.402392471,923580.9197,3229.3481,20352.48697,Braced Frame,1.307179445,0.637497457,595.3721045,4.457460773,0.587712196,58.77121965
Moderate,0.279013522,0.919473242,0.004017475,1.173625444,Soft Soil,1.305375824,7.096591808,37.14328366,0.328795618,105.3047331,8,Concrete,Deep,3.394270233,3.412080853,671034.0881,7124.488133,21783.39312,Braced Frame,3.048853772,1.806727222,2259.352015,1.515872471,0.224186551,22.41865507
Low,1.171765451,0.820176922,0.242446249,1.022998756,Sand,1.239057555,5.495164245,91.34583757,3.792770289,119.8080954,2,Concrete,Pile,3.160342787,1.483992148,314270.6929,6172.431148,12866.85519,Moment Frame,0.740915646,0.475817328,2829.60272,2.690178331,0.587989858,58.79898582
Low,0.100016289,1.838615392,0.062500482,0.319947049,Clay,0.883125915,5.711038887,78.27165847,1.57300401,159.0242809,13,Composite,Deep,3.204321118,9.319348417,499280.5639,5144.89311,17039.34766,Shear Wall,2.954410869,1.100322904,51.64819103,1.893599463,0.819499583,81.94995829
Moderate,0.68319216,0.577221608,0.154531866,0.738896072,Clay,2.215413395,8.1140989,75.78828998,5.628006328,132.9667792,40,Steel,Deep,1.622095213,6.955486052,854252.2121,6824.802116,49282.52288,Moment Frame,0.535372277,1.417616469,615.5158724,0.106966193,0.85740368,85.740368
Very High,0.831514254,1.704003418,0.46310372,0.268548391,Soft Soil,1.377522639,4.698655029,61.0652384,9.181754125,123.7078734,21,Concrete,Deep,2.192693619,8.97960385,368690.7536,4027.94868,19040.23201,Braced Frame,2.50386101,0.551049648,1907.216199,2.939215931,0.800250455,80.02504546
Very High,0.176488188,1.019639088,0.081685582,1.159021875,Rock,0.915163793,8.964414842,63.05159789,3.97564933,85.29749536,31,Steel,Pile,4.036592028,7.455616133,549168.5416,9472.605363,26809.52581,Shear Wall,3.140030436,1.877441761,313.9824738,4.097400771,0.888209415,88.82094153
Very High,1.462309428,1.076781341,0.482950328,0.859686132,Rock,1.308154483,5.086582559,64.16232029,8.465008735,97.39264482,48,Masonry,Raft,1.670628977,2.18158184,695686.4746,7201.764243,42566.41903,Shear Wall,0.443537232,1.334738121,710.9684179,0.278553482,0.334766342,33.47663419
Very High,0.416575464,0.686089735,0.103691394,1.422574452,Sand,2.564210696,8.082308364,63.24341732,0.102384658,85.83156173,36,Concrete,Deep,2.456097006,9.465233831,766802.8719,7664.910374,26843.96274,Moment Frame,1.114070445,0.103807223,1197.392133,0.117109617,0.507570621,50.7570621
Very High,0.525878207,1.188780181,0.371041488,0.474799818,Soft Soil,2.6732762,6.276488925,55.81909491,1.76829497,169.2223759,48,Composite,Deep,0.294234903,9.099037483,215197.5663,2803.009903,16898.21766,Braced Frame,1.743333996,0.280117687,2176.527,3.666310192,0.779591096,77.9591096
Moderate,0.525519517,0.717901273,0.273791955,0.379762299,Rock,1.862745739,6.714972825,98.65498783,0.401193043,49.85008825,38,Masonry,Shallow,3.721080094,4.132684701,586894.6894,2101.529033,26663.79787,Moment Frame,1.906133606,0.389655324,3588.44413,3.450912653,0.264449951,26.44499508
Moderate,0.422583327,0.174611887,0.442354885,0.790764793,Soft Soil,1.715355475,8.462927599,73.49676618,3.348657087,6.115581651,27,Masonry,Pile,2.204970448,2.003800063,916589.9055,4246.237534,6590.229212,Moment Frame,3.412912752,0.497465154,706.8086285,2.088675316,0.371581438,37.15814379
High,0.102063351,0.61679735,0.277442634,1.675195151,Rock,2.951278126,6.358100353,77.91769245,9.091076997,132.00738,36,Composite,Deep,2.721722089,7.337392757,969941.7924,7783.388611,7370.340806,Moment Frame,2.692204569,1.464047966,3702.894931,3.34186392,0.831155655,83.11556546
Very High,1.121082712,0.112120182,0.26774505,1.307717086,Clay,1.241242251,6.918721892,87.37381869,1.059826024,44.48012581,48,Concrete,Pile,0.750508725,7.555251725,673337.7904,9418.561143,35011.26908,Shear Wall,1.972331504,0.186981137,4282.550612,4.771591755,0.77008565,77.00856496
Moderate,1.4535837,1.958874095,0.098533542,0.812170162,Rock,1.273790422,4.721848481,22.34833651,6.10345679,178.5724516,23,Concrete,Deep,4.960228298,9.071461404,984477.764,4559.633347,45955.57221,Shear Wall,2.308313646,0.707683398,3274.819896,1.314527703,0.971199568,97.11995679
High,0.414010877,1.934919699,0.083948452,0.979362689,Soft Soil,1.442107789,4.510563632,9.29661175,4.569809797,172.5140343,21,Masonry,Raft,1.65184557,1.473901835,592198.4865,7854.489529,36558.22854,Braced Frame,0.163585686,1.823652813,266.4421924,1.305040313,0.995974059,99.59740585
Very High,1.028266069,0.850795065,0.458328086,0.243162119,Clay,1.1800661,5.601599429,48.80654922,9.390835302,19.96183753,13,Concrete,Raft,3.247950376,2.275334542,470474.7783,4968.872385,4656.048792,Braced Frame,3.875573869,1.117768696,2231.23575,1.012537803,0.240744547,24.0744547
Low,1.138654858,1.483904623,0.164591261,1.773779024,Clay,1.634604316,7.562623918,51.89398887,1.312939511,25.74573906,37,Steel,Deep,2.989934455,6.384239136,574008.086,3304.668371,20741.88494,Moment Frame,0.300922975,0.538338162,3317.326708,3.647535075,0.900449986,90.04499862
High,1.287795531,0.757031587,0.186669045,1.232892418,Clay,2.803835299,5.04569202,83.08899622,2.19907572,101.5584605,47,Composite,Raft,3.968442579,6.572183958,159926.7746,7523.018932,1125.125825,Moment Frame,4.163655715,1.91454203,4893.640016,1.830627267,0.094515501,9.451550135
Moderate,0.691680876,1.375076998,0.380152006,0.585186916,Soft Soil,2.153765249,5.011928815,44.93457435,0.392465489,123.7984192,26,Steel,Deep,1.610417387,1.302486961,431630.1237,8082.920273,26049.13042,Moment Frame,2.750882955,0.496188625,4761.451521,4.944596357,0.709800209,70.9800209
Low,0.524103268,1.630317082,0.170072918,1.09587427,Sand,1.706282407,6.349322736,57.51444953,4.395958971,58.60712581,40,Concrete,Raft,3.828451256,4.57238846,485484.8004,2426.987544,10467.01976,Braced Frame,2.686314037,1.811148246,2008.730614,3.601779627,0.220099388,22.00993877
Low,0.555413188,1.898836865,0.476079161,0.286120022,Sand,2.855703748,7.415266674,53.18002291,2.850545706,144.7755548,7,Masonry,Shallow,2.036008307,6.257455581,856196.4088,3399.110269,43539.18579,Shear Wall,3.552435276,1.45428165,3098.858808,1.900146745,0.300311157,30.03111569
Low,1.097669866,0.860403324,0.369225957,1.741922337,Sand,0.906621311,7.704323965,4.782075592,8.712068746,121.0086241,46,Composite,Shallow,2.173572636,7.641201998,770716.1631,5200.380013,6112.417591,Shear Wall,4.31184171,1.483636864,4459.534979,0.831011567,0.946321178,94.63211777
High,1.243491253,1.588266168,0.299117192,0.397134479,Soft Soil,1.262607591,5.303028033,61.90627476,6.088914051,68.3407014,39,Concrete,Shallow,3.429020127,3.845356226,621355.256,2271.957383,1070.236534,Moment Frame,4.718966118,1.532229244,4163.678925,3.000921601,0.263151237,26.31512367
Moderate,0.354259555,0.605264056,0.440566685,1.201651541,Clay,2.044954931,4.858146663,82.97628529,6.179498306,9.947440168,22,Concrete,Pile,3.964571704,5.355131437,379913.3731,9323.925838,23106.15611,Moment Frame,2.762512447,1.018072931,2423.138079,1.54502594,0.673177869,67.31778692
Low,0.619317411,1.981631377,0.025753348,0.517272586,Sand,2.154215771,8.731786653,16.59255426,5.365915899,151.2793049,39,Masonry,Pile,3.400959853,8.326493851,227682.8564,6117.672169,8616.231892,Moment Frame,0.838225337,1.631011665,1343.144588,4.536994498,0.178128508,17.81285079
Very High,1.362716275,0.148962238,0.129274283,1.319854351,Soft Soil,0.887026514,5.672998722,59.83884166,1.009318339,46.87696484,23,Masonry,Shallow,4.519421699,9.585055575,380376.7699,1651.431135,37161.33273,Moment Frame,4.405291538,1.674024265,728.6447367,2.262881559,0.093389978,9.338997757
Low,1.229370928,1.246704732,0.233053131,1.420596324,Sand,1.686685267,8.340059239,59.7674439,4.505684969,167.72238,30,Steel,Pile,1.568763342,3.072832079,695813.8674,2248.283714,46076.80186,Braced Frame,0.29929289,0.727368576,2465.501768,1.533984826,0.339317025,33.93170253
Low,1.478801764,1.353061365,0.114262291,1.244813539,Rock,2.228138723,8.385711527,17.25431144,9.995101378,86.95660071,18,Composite,Raft,4.522960314,3.277379852,299885.9091,9566.375781,3054.962701,Shear Wall,4.055952137,0.806685591,3628.087083,2.983903891,0.624196101,62.41961008
High,1.155947564,1.407286558,0.372208688,1.144649082,Sand,2.335755202,7.976351663,13.2228938,8.368769979,117.5301013,42,Composite,Deep,0.828144925,9.458363687,455542.3609,7512.601564,20383.52348,Moment Frame,3.434065969,1.77862587,4850.36008,0.771175055,0.247945144,24.79451438
High,0.650473281,0.3287364,0.459684807,1.61719746,Sand,2.203907786,5.25975123,98.02514235,8.945244636,175.2250024,18,Masonry,Deep,3.365745531,4.563200357,417431.7231,7476.848303,49843.93383,Braced Frame,4.533165276,1.054211228,4315.983779,2.851590457,0.300168799,30.01687987
Moderate,0.926892968,1.883206589,0.21246129,0.233665409,Clay,1.505239094,8.198106567,39.9781978,8.249940957,173.4064852,46,Steel,Deep,2.828627127,7.465134921,777310.5606,1188.736643,36900.92653,Moment Frame,4.497569436,1.735217557,1060.992728,0.374946245,0.708729819,70.87298186
Very High,1.025419956,0.44424823,0.171724167,0.662555102,Soft Soil,1.005744272,7.961627517,23.51475114,1.120112765,77.44631717,10,Composite,Shallow,2.574252514,6.510387059,889597.7091,9005.338958,47706.19454,Moment Frame,0.360455019,1.257271229,3612.901728,3.073754541,0.102796023,10.2796023
High,0.209838143,1.283231466,0.480813815,0.522088715,Clay,1.739647382,7.185253455,17.9611299,2.351737715,45.73333408,39,Masonry,Pile,1.692377739,3.570289118,714402.409,4715.485944,9040.080976,Shear Wall,3.086287395,1.191199836,1481.051207,2.697802835,0.446905092,44.69050918
Low,0.862295743,0.52308455,0.222981364,1.779623736,Clay,1.083259762,6.017409158,67.09256964,0.130904348,156.1534852,30,Concrete,Raft,2.617917177,6.882059998,374522.1479,6767.314565,11847.05942,Moment Frame,0.71089013,0.071652097,3433.189342,2.651753312,0.94173453,94.17345299
Moderate,1.09304916,0.683711192,0.245035152,0.761962625,Clay,2.884772049,5.681288719,61.33508444,3.104750236,89.4506397,26,Composite,Raft,0.976512111,6.900093109,461518.1965,9617.047582,8585.750789,Shear Wall,0.484496198,0.563009852,3345.737029,3.452405497,0.396971662,39.69716624
Low,0.334249826,1.138271229,0.176473286,1.345441589,Clay,1.845375905,5.048501454,64.71166018,1.175213283,42.44818874,7,Steel,Shallow,1.972740532,6.331988669,186182.6464,1450.117613,15816.08266,Shear Wall,2.296558015,1.009094717,1398.531484,0.317837411,0.434201028,43.4201028
Low,1.192884404,0.892667495,0.454864688,1.264032779,Clay,1.497970184,6.793906801,9.712596724,4.780654118,181.3629418,7,Steel,Raft,0.673668404,1.896947424,209692.5754,5081.626365,36494.81935,Shear Wall,0.578227945,1.178761173,1210.22367,2.352684177,0.738204304,73.82043036
High,0.917281893,0.404428642,0.284908786,0.460538104,Sand,2.485868956,7.13367394,89.45992377,6.803562137,43.63031788,5,Steel,Raft,2.944863679,9.956546401,206077.9392,971.3209983,9082.386377,Braced Frame,3.666721677,1.264564713,564.4919248,2.275789449,0.779011522,77.9011522
Moderate,1.4331105,0.424779165,0.381325119,0.506296056,Clay,1.895486904,6.117025457,39.53737328,8.757602421,10.0323978,1,Concrete,Raft,0.659685854,4.603748151,174057.0397,5245.681522,26687.46786,Braced Frame,4.847809481,1.435283422,300.1712022,2.352933965,0.76960639,76.96063898
Very High,0.159391217,0.894475098,0.406091552,0.578183758,Clay,1.482074853,6.639115805,32.02357124,7.517249934,8.954594885,46,Composite,Raft,0.969654291,6.744258869,220602.1671,2896.4644,14191.28604,Shear Wall,2.890956493,1.31590453,4299.332741,4.901465758,0.997867025,99.78670249
Very High,0.471456593,1.538837659,0.171582672,0.798916373,Soft Soil,2.586329033,6.135815058,46.77378328,9.391997398,126.3514945,18,Composite,Pile,0.610240647,8.971855247,242553.7924,9155.122528,41630.59318,Moment Frame,1.252327461,1.698667648,296.7545034,0.782464518,0.071451087,7.145108749
High,0.942175431,1.806132829,0.217413471,0.498352612,Rock,2.707734732,7.384527258,39.61654051,0.633593075,134.0266368,13,Concrete,Raft,2.030291072,4.809596396,156253.6466,4285.678696,1323.027862,Shear Wall,4.231711318,0.597985982,489.2687743,3.48310581,0.982253285,98.22532846
High,0.515183877,0.259842558,0.424387415,0.133407521,Sand,2.280617966,8.555666435,86.49412331,0.220580371,65.65313249,25,Composite,Deep,4.241400581,7.965325511,658247.6858,6521.788237,11932.63297,Moment Frame,4.280206537,1.286724271,1232.317575,2.069781073,0.950189617,95.0189617
Moderate,1.10019383,0.846897424,0.18226442,1.594968197,Sand,0.903321729,5.237641179,92.99683654,6.647247327,67.4021429,40,Concrete,Shallow,4.55310268,9.746419822,990881.4579,8672.729016,30656.79712,Shear Wall,3.690651265,0.111807433,4443.908726,2.607459969,0.8521389,85.21389003
Very High,1.162607396,0.290466571,0.397173632,1.741536713,Sand,2.045910336,6.216339645,31.04186843,2.964588861,71.20131344,8,Concrete,Pile,0.545069382,4.230412842,885227.4074,9845.072655,5738.814597,Moment Frame,3.114147706,0.965578254,1698.054784,3.835730139,0.454125576,45.41255759
Very High,0.24352235,0.131525713,0.470555169,0.680669658,Clay,2.479248806,5.133908718,86.52964494,2.609660059,137.6309166,10,Concrete,Raft,3.245840676,4.647426132,93322.58763,5286.284018,23849.29858,Braced Frame,4.352183028,0.543385602,999.4078094,0.871139669,0.870902372,87.09023716
Very High,0.81939625,1.357265497,0.311981976,0.675461695,Clay,1.100306627,7.312246967,78.37078982,3.375782168,16.33608925,32,Steel,Pile,3.485050038,9.150184531,451905.8687,4829.698177,22374.15753,Moment Frame,0.900129242,0.767965425,3591.999704,3.841567542,0.220832412,22.08324123
