Seismic Zone,PGA (m/s²),PGV (m/s),PGD (m),Spectral Acceleration (g),Soil Type,Site Amplification Factor,Historical Earthquake Magnitude (Mw),Fault Distance (km),Seismic Wave Frequency (Hz),Building Height (m),Number of Stories,Structural Material,Foundation Type,Natural Frequency (Hz),Damping Ratio (%),Mass of Structure (kg),Axial Stiffness (kN/m),Bending Stiffness (kN·m²),Lateral Load Resisting System,Predicted Max Inter-Story Drift Ratio (%),Predicted Max Roof Displacement (m),Predicted Base Shear Force (kN),Predicted Structural Acceleration (m/s²),Predicted Damage Index (0–1 Scale),Predicted Collapse Probability (%)
Moderate,0.374166318,1.538391418,0.018759525,1.515064771,Rock,2.054411875,7.811791022,43.75252554,8.533691026,49.65250113,11,Masonry,Deep,1.446804493,1.715244993,246339.2909,7275.060553,7533.780719,Moment Frame,3.015541266,1.32153377,73.55724835,0.590606124,0.580984306,58.09843061
Moderate,0.297124128,0.205650491,0.497170821,1.785761383,Rock,2.696056411,5.855540827,6.339325701,6.871846131,107.6952414,13,Concrete,Shallow,2.847153418,5.446726464,373314.933,6052.440472,26644.07623,Braced Frame,0.811852973,1.135391825,3758.483169,0.303308305,0.861137782,86.11377817
Moderate,0.971379098,0.113068128,0.117131446,0.378147547,Sand,1.849641599,6.58525954,52.13810453,2.727160358,93.05154039,33,Masonry,Deep,2.368316407,4.245264789,617035.323,9073.964121,36996.47998,Shear Wall,3.807988334,0.030750182,305.0021866,1.400488849,0.717818412,71.78184121
Low,1.193850598,0.503649827,0.027861432,1.276021987,Sand,2.988041365,7.197437439,50.96920806,6.910832117,118.0241253,2,Composite,Pile,0.275717071,8.852100681,928628.6427,8376.754282,28113.79597,Shear Wall,1.169057384,0.417338731,4752.988659,0.976505821,0.281664102,28.16641021
Moderate,0.909617759,1.360694828,0.095747789,1.246299075,Clay,2.294177739,5.270730348,15.80538254,7.945321024,176.0452056,34,Steel,Pile,4.155128281,8.890115668,924357.5328,7309.376321,13015.75934,Braced Frame,4.010085239,1.554687855,3528.560468,3.284018172,0.574427597,57.44275973
Low,0.305747793,0.881275229,0.020439965,1.765924261,Rock,0.962964796,7.837370184,11.28009922,3.137263403,174.2107411,29,Masonry,Pile,4.418244599,7.307015856,323510.6092,809.4946327,18336.00329,Braced Frame,1.030421733,0.558787502,1634.852839,4.250136054,0.01307362,1.307361961
Moderate,1.235573278,0.864571893,0.196513636,1.775521248,Rock,2.98423069,5.861881533,13.23367657,0.456770037,92.95983401,37,Masonry,Raft,3.472990129,6.901520271,748839.9289,4048.443973,32290.06415,Braced Frame,3.634696162,1.003573968,1633.25994,1.631537647,0.475218342,47.52183424
Very High,0.99033659,1.780715088,0.40139849,1.26735364,Sand,1.697367321,7.48067337,11.0017964,9.334513334,7.996418893,4,Composite,Deep,2.797125722,7.603196133,786743.1265,6502.951886,29898.01547,Braced Frame,1.73206593,0.630877243,4314.38728,2.931178129,0.086013636,8.601363557
Very High,0.643431989,1.801569411,0.17128098,0.514145146,Rock,1.432285574,5.212273728,61.36111136,3.517280399,88.15654211,12,Masonry,Pile,4.811541627,4.293882109,818381.945,5461.379981,7701.964618,Braced Frame,2.957287975,1.843838444,4519.058636,3.678495857,0.428944998,42.89449978
High,1.043782414,1.827433002,0.22264752,1.457544925,Sand,2.027334204,7.596529466,20.45178259,1.154169457,123.2077398,26,Masonry,Shallow,0.775789797,4.640673221,592224.1705,3533.524102,42402.5242,Shear Wall,0.28944289,1.077788265,4463.287741,2.052589677,0.109611808,10.9611808
Very High,0.463866971,0.696368345,0.3381178,0.281949528,Rock,1.469476702,5.076846328,25.89158507,4.969383027,113.764128,28,Composite,Pile,3.741968258,5.983342506,59982.59819,1872.027197,24284.2567,Braced Frame,2.526697728,1.395385295,4053.264448,0.424995496,0.955479807,95.54798069
High,0.583269092,1.413006044,0.254938141,1.427188817,Clay,0.990206516,6.414104233,18.18364227,7.707831177,132.0105406,3,Concrete,Pile,0.816130942,9.442253146,773592.4712,5753.467536,8956.092002,Shear Wall,0.828570684,0.176117448,4104.208503,1.223006064,0.523067957,52.30679574
Very High,1.38448018,0.616103044,0.430861397,1.647333411,Rock,0.803142355,5.612427332,95.82569514,2.294308415,35.04476783,20,Composite,Pile,2.032855035,7.515998867,151267.5773,3216.216971,7018.500586,Shear Wall,2.482969114,0.090268615,2885.201119,4.42702246,0.913217985,91.32179853
Low,0.506706308,0.462158683,0.433151802,0.750816771,Rock,1.789083376,7.867688622,85.60712885,2.767951496,131.0743443,10,Concrete,Raft,3.010325644,5.9589032,161027.8169,2713.504653,48312.03696,Braced Frame,0.792659741,0.525864108,189.7437121,4.139953305,0.022366223,2.236622297
Very High,0.757983575,0.450801669,0.005945437,1.172080001,Soft Soil,2.641099529,5.67915752,23.8189889,2.502878369,40.61706566,18,Steel,Shallow,3.738020914,7.933717134,625343.5625,4290.103157,14795.22045,Braced Frame,2.241736689,0.625177242,479.5277462,0.524009391,0.637653284,63.76532839
High,1.346197592,0.75000448,0.389245107,0.831242645,Sand,2.059093408,8.467727879,33.4290631,9.917563223,151.3521762,27,Concrete,Deep,0.217837281,4.33801281,984344.495,7962.168616,45521.08581,Shear Wall,0.642042019,1.378484277,3265.288585,1.197348744,0.306954502,30.69545019
High,1.09080989,0.916919478,0.230906067,0.844200593,Rock,2.998256058,8.513190951,21.77939139,2.054296964,71.12208459,31,Concrete,Shallow,1.450869855,7.57420031,280412.4996,5134.608272,21118.67964,Braced Frame,1.177762437,1.1425697,2035.767544,3.868909882,0.431828996,43.1828996
Moderate,0.187084517,1.678803425,0.49443143,0.627630511,Rock,1.43106262,5.383985919,49.69571999,5.797650148,143.4296095,27,Steel,Deep,2.783361879,4.696086235,663520.336,2556.676,19910.15009,Braced Frame,3.015886784,0.755413418,2858.182673,2.480901337,0.873087395,87.30873952
Low,0.306224262,0.327793078,0.242132806,1.395620355,Soft Soil,1.417001142,7.262306753,2.941442715,9.260119952,14.33379179,42,Concrete,Raft,2.75779366,3.516952663,338470.9635,1610.579852,35345.51951,Braced Frame,4.885637122,1.311693794,1193.834232,3.823838455,0.980021095,98.00210948
Very High,0.110978227,1.49635911,0.493461077,1.691500159,Soft Soil,1.151448813,4.894729388,67.46543288,1.554276032,84.53270499,1,Composite,Raft,3.260606888,6.487516428,903789.8079,5240.379006,1484.281101,Moment Frame,2.301005365,0.335495837,3264.61501,1.134353111,0.246491954,24.64919544
Moderate,0.983290506,1.109764337,0.377530111,1.699276461,Sand,1.160939894,6.261916948,52.79265683,9.711456559,142.4817318,6,Concrete,Raft,1.658497188,7.181898037,613841.0475,8046.480785,17566.38656,Shear Wall,3.467151094,0.136344493,1252.006244,4.768220882,0.948253285,94.82532854
Very High,0.726742796,0.647096151,0.125053837,0.397128184,Soft Soil,1.427410511,7.709947783,89.9652539,9.480024621,49.23975068,11,Steel,Raft,2.794540405,5.133642051,247103.4613,6701.771225,15829.6399,Moment Frame,2.743180888,1.710465134,2331.02335,3.939676499,0.688726949,68.87269489
Very High,0.287984791,1.036357211,0.269659095,1.587064204,Clay,2.5442481,7.467404611,17.27487575,8.857262672,160.0809737,34,Composite,Deep,1.110976532,6.089506582,299024.4979,2705.414361,43536.80662,Braced Frame,2.541953878,1.132252795,2419.663503,1.067516392,0.951413914,95.14139144
Moderate,1.441107769,0.669889933,0.496075684,1.35363345,Soft Soil,2.792664939,7.311153012,80.60681536,2.224109561,128.002048,39,Steel,Pile,1.096986629,7.246594674,460856.6939,4648.712564,26927.05341,Moment Frame,0.417050565,1.301699595,929.4577377,2.836401083,0.562366999,56.23669986
Moderate,0.841523614,1.232555715,0.428907773,0.529823581,Clay,2.945191773,5.771433886,79.40414043,6.377145055,119.5745456,20,Steel,Deep,2.967507024,7.909390464,165941.3839,8624.688452,18863.9377,Braced Frame,0.807057271,0.621412079,4387.228246,0.654175928,0.960756285,96.0756285
Moderate,0.438650612,0.924303453,0.04958608,0.214383842,Sand,1.311037239,6.201112272,13.59093773,7.632825582,73.94202657,21,Masonry,Shallow,3.490268408,9.060143312,124796.6999,2187.731125,14037.8862,Moment Frame,4.426982873,0.750190366,2652.814229,1.871030594,0.892455458,89.24554581
Moderate,0.800845,0.412370505,0.353479626,0.555595354,Sand,2.7388546,4.963257651,40.45736319,9.861676489,99.07803672,21,Masonry,Raft,0.77791984,4.190897856,696058.326,5554.765421,29934.98063,Braced Frame,2.109805144,0.17391122,4340.579701,3.332144706,0.128591741,12.85917412
Moderate,1.051468466,0.321507842,0.173444213,1.650754003,Sand,1.522161196,7.735602692,17.84511147,1.886195839,121.4831137,18,Steel,Raft,0.789391529,9.563295276,436806.809,3884.199333,8431.983887,Moment Frame,3.110229135,1.715406494,1349.551693,1.717625671,0.310789927,31.07899271
Very High,0.206734905,1.138721796,0.004484149,1.176403747,Sand,1.048249198,6.767499586,26.21732955,7.683656405,97.13011221,21,Steel,Shallow,2.913452919,6.735518291,739914.5023,1679.707671,13064.03366,Moment Frame,2.68834284,1.188954506,903.0629301,3.318116139,0.243063192,24.30631915
Moderate,0.484585341,1.814584763,0.202337004,1.325792924,Sand,2.714054836,7.689445346,27.06137131,3.454131582,141.1710982,19,Steel,Deep,1.496459611,8.089316944,154555.2904,974.0872487,15386.99609,Moment Frame,1.95652366,0.17641905,139.1824057,1.299419377,0.572099326,57.20993261
Low,1.229751687,0.753519604,0.118142456,0.537158997,Clay,2.199432396,5.620245862,56.06740301,1.838702009,89.57090196,4,Masonry,Pile,2.083515691,7.297921391,629372.2705,5780.778154,30787.53843,Shear Wall,2.000301059,1.611013903,514.6300656,3.633913225,0.802799432,80.27994315
High,0.743530819,1.492700204,0.409615766,1.322959864,Clay,1.162407971,5.959972029,41.72968224,4.271631718,44.44327044,13,Masonry,Pile,2.123592549,2.850145528,471141.4537,697.1143005,19289.49299,Moment Frame,2.821778529,0.893789585,779.9794942,1.861988912,0.759411447,75.94114469
Moderate,0.865207999,1.351456574,0.169327974,0.147806561,Sand,1.745628767,6.003969018,94.8255476,7.95897553,46.71708765,18,Concrete,Shallow,1.057053725,1.642945447,105098.7217,1482.738109,25783.38171,Shear Wall,0.791594827,1.532551687,440.3350338,3.973358227,0.726749132,72.67491323
Moderate,0.705942403,1.869954337,0.413934323,0.738046288,Soft Soil,1.431966929,4.615840844,13.51064405,4.702013057,6.131734924,29,Concrete,Pile,0.20631024,7.536578176,567561.8794,3801.860671,32871.47492,Braced Frame,1.997569297,0.035113526,4489.552511,0.769780582,0.375264876,37.52648757
Very High,0.16145992,1.659863933,0.001298371,1.165480693,Rock,2.420948051,6.034715428,97.39552135,5.421478692,63.68675453,25,Steel,Deep,4.295128688,5.59947401,128664.061,913.4417609,47857.30844,Moment Frame,2.29018029,0.067191997,4561.619624,1.873691952,0.139636882,13.96368816
Moderate,0.332049692,1.176549992,0.154601756,0.348364161,Sand,1.797515707,8.114870581,23.83322538,9.952078161,151.0389399,13,Composite,Deep,3.632009451,7.319920316,836333.7604,4304.229651,38477.03246,Braced Frame,4.927118496,0.349858088,4689.945228,2.373269023,0.210583554,21.05835536
Moderate,0.723758294,1.348357947,0.121341442,1.499106077,Soft Soil,2.976415879,8.537843231,77.5145197,4.051182066,159.8617282,27,Composite,Shallow,3.514585079,5.291585235,650359.5921,1738.46773,20857.58225,Braced Frame,1.82212837,0.429723947,4801.311141,2.17684307,0.74167746,74.16774596
Moderate,0.392859652,1.806934287,0.117550113,0.499553208,Rock,0.920438961,6.83198242,34.55802269,6.192467472,44.48117071,19,Masonry,Deep,2.823224663,3.810110684,579119.1571,3823.794362,37665.49335,Moment Frame,3.25843659,1.530271505,2484.583275,2.222163072,0.147534339,14.75343391
Very High,0.16997064,0.859085691,0.035025123,1.208877892,Sand,1.581033585,6.549757628,15.16505815,3.715917596,192.0135794,49,Masonry,Raft,3.564654342,3.565161183,176795.5542,8016.017027,47535.01487,Shear Wall,0.773335949,1.416321386,2673.621952,2.279536333,0.222946705,22.29467049
Moderate,1.28110953,0.720909941,0.094375011,0.788835142,Sand,1.860180368,4.638710784,85.93102934,3.988577899,102.9685447,1,Masonry,Shallow,4.691304212,7.574789178,323084.2578,6450.461273,25469.64674,Moment Frame,0.420858771,1.236015357,697.6106214,4.945137274,0.424552653,42.45526529
High,1.473669541,0.120541059,0.278219235,1.113274112,Clay,1.90689382,8.456419519,31.57722902,6.986843459,183.8108561,38,Steel,Deep,3.395233934,3.491020733,518232.1023,4731.310239,21114.34972,Braced Frame,4.370555869,1.770869204,728.4075869,1.046469806,0.072112431,7.211243069
Very High,1.210400024,1.670447041,0.146389175,0.282665939,Rock,1.495058809,4.55854596,66.22668502,9.385081063,142.81923,19,Composite,Shallow,1.472438729,7.432091838,651619.338,1372.416425,4822.916251,Braced Frame,3.680601022,0.501826079,3875.144371,3.866452769,0.212692061,21.26920608
High,1.29529889,1.621863331,0.209279996,0.12875176,Rock,2.404328548,8.751375361,57.07792482,5.46935361,145.8745175,1,Concrete,Pile,2.938688248,4.455641137,224069.1828,6381.921763,44726.14816,Moment Frame,1.655746509,1.809765759,4285.858967,2.803765027,0.149768127,14.97681273
Very High,0.438767982,0.298463584,0.189056573,1.646259527,Soft Soil,2.724443562,6.701473119,47.70387463,7.707159297,21.58350615,40,Steel,Deep,2.323157136,7.938085639,58422.96423,2055.241699,13075.27976,Shear Wall,2.572432214,1.819847428,3934.336432,2.126779249,0.951321783,95.13217829
Moderate,1.444877766,1.196029024,0.438076558,0.558371015,Clay,2.865182464,6.038705221,50.08612779,0.983144932,47.89826974,17,Concrete,Raft,2.870811829,2.285289332,377522.1779,1227.570267,4133.936944,Shear Wall,0.765146504,0.874176923,4181.150532,3.204290714,0.191525886,19.15258855
High,0.375695986,0.981565227,0.452744201,1.493450905,Clay,2.571205429,8.658982957,73.4915535,2.190464571,6.718892492,21,Concrete,Deep,2.684530292,2.844819489,508727.8818,6807.962166,27322.97084,Braced Frame,3.565085441,0.197828539,1419.023061,4.282304071,0.86176971,86.17697102
Very High,1.432001735,0.325547281,0.246985529,1.798895511,Clay,2.671276434,4.609759469,9.689518498,5.071103245,144.6448899,22,Steel,Shallow,4.322121369,7.173204451,225211.8303,9164.569029,42449.08265,Braced Frame,0.444619901,1.455854217,2357.025632,2.386527983,0.114798191,11.47981913
Low,1.492747012,1.963079631,0.165747819,0.459433139,Clay,2.011199661,7.116412027,67.14988553,0.298116064,72.16546624,15,Concrete,Shallow,3.328640496,6.042080082,517557.2306,4875.637649,20925.11773,Shear Wall,3.809461979,0.680488059,2323.036948,4.337526708,0.869673132,86.96731323
Moderate,1.096411928,0.507922186,0.054293551,0.55079026,Rock,2.616954098,6.97019636,89.68539804,2.60326429,158.3972406,39,Composite,Deep,1.106040694,2.834905084,371561.5656,889.4611508,39370.30604,Moment Frame,2.7794989,1.59190974,4976.652846,0.559611841,0.599433786,59.94337863
Very High,1.473601225,0.227744942,0.476748037,1.226861639,Rock,1.4677086,5.486941805,6.721031505,5.222272769,71.09256289,48,Concrete,Raft,0.502480539,9.125443106,482335.1828,8862.828315,41983.40436,Braced Frame,1.466367597,0.335743665,4748.4312,3.300112688,0.849705923,84.97059232
Low,0.897355691,1.230210021,0.031053246,1.741262679,Sand,1.676653277,6.429993441,14.92468058,0.248115863,164.7700817,39,Composite,Raft,2.236946186,3.483497327,380084.863,1136.250778,23265.77438,Shear Wall,4.326614335,1.083635076,3012.506227,1.7325823,0.867348689,86.73486885
Very High,0.463358496,1.503846687,0.149527489,1.656884392,Sand,1.49720863,7.435188027,71.94656173,2.719008234,30.48615948,32,Composite,Raft,0.274930987,4.789642584,647044.4573,8741.375806,29956.79823,Braced Frame,4.931752165,1.021066723,732.967009,1.994905104,0.596373531,59.63735307
Low,0.71179424,0.161642547,0.149735034,0.954888384,Clay,1.828252138,7.772090386,44.29088318,5.188905113,38.80776557,49,Composite,Shallow,1.727827452,2.820591477,90752.16044,4222.284046,27161.70263,Moment Frame,1.346310596,0.209625836,1330.050391,2.897996779,0.917694153,91.76941534
Moderate,0.93098531,1.351563514,0.160880242,1.45168748,Clay,1.428275156,4.503225864,40.95131346,5.774177555,71.47092522,4,Masonry,Deep,1.966503053,4.492248565,212360.0254,3971.248117,47020.59722,Shear Wall,4.050606133,0.733032323,1850.619697,2.451592312,0.585448291,58.54482915
High,0.202314187,1.111354564,0.082979135,0.33076795,Clay,2.915545173,8.715840435,14.55969682,9.264941761,84.65504083,44,Concrete,Pile,2.002826595,5.424820751,461113.3257,5656.575105,36549.77857,Braced Frame,3.77581495,0.178663074,4372.397715,1.970719249,0.712565078,71.25650779
Low,0.97128057,0.296203517,0.391797554,1.761644913,Sand,1.488258182,5.240364176,51.17023403,6.48892167,72.99704811,45,Steel,Shallow,4.900880117,3.657223491,388481.8798,9592.305766,46341.79773,Moment Frame,3.761231593,0.934833216,894.6306625,1.610784767,0.416080477,41.60804772
Very High,1.473648971,0.427795366,0.062126433,1.739400498,Soft Soil,1.015697984,5.551111954,13.52798581,4.205884445,153.9111713,32,Steel,Raft,1.658724209,7.921843059,422050.3582,9038.035178,11780.48893,Braced Frame,4.790454496,1.687380072,1137.747237,3.129744981,0.914067694,91.40676945
Moderate,0.36615071,1.179151165,0.317818423,0.378339228,Soft Soil,1.958997765,5.685630506,48.18542517,9.310476654,23.90552156,4,Concrete,Deep,1.473091978,4.545396808,813572.6601,4968.135839,16201.60574,Moment Frame,2.484423752,0.547707479,1779.454224,2.577340294,0.824162539,82.41625389
Low,1.209633163,0.663079466,0.062799167,0.609019312,Sand,0.925617973,4.670190614,76.5979146,7.870341536,73.48731883,1,Masonry,Raft,0.821028469,7.56559,892015.0753,7110.320695,4474.760186,Moment Frame,3.403423399,1.532075355,4638.205434,1.684214715,0.166713112,16.67131116
Very High,1.371058311,1.882799884,0.036197283,0.270263496,Sand,1.043194966,5.053734556,26.56817143,2.080088319,168.2617999,33,Masonry,Pile,2.652842411,2.863649579,286235.3443,6014.077897,25495.48988,Shear Wall,4.136999082,0.375020557,2543.869849,1.104308993,0.57638785,57.63878502
Very High,1.42118223,1.655606436,0.454805322,0.561919918,Sand,1.282656656,8.938574653,48.59783065,1.395339377,18.02543007,7,Composite,Raft,0.93763667,4.393319471,844571.5073,7087.885001,43822.26029,Moment Frame,2.449728581,1.350732506,3251.838381,3.89489416,0.896827329,89.68273291
Very High,1.444189846,1.968777692,0.095874254,1.487124842,Sand,1.82157055,5.918475318,99.20958097,6.790535194,188.756984,9,Concrete,Raft,3.158214621,1.0725246,485850.372,8378.610871,17015.48816,Braced Frame,2.459012894,1.831919426,1966.75536,4.01860313,0.793064494,79.30644937
Low,0.830043494,0.593374594,0.410803827,0.743136532,Sand,1.753152051,5.018854907,68.97839191,5.642843339,197.3317842,1,Concrete,Pile,0.944766939,7.827738255,310129.5883,827.6913743,7285.823241,Moment Frame,1.661408295,0.654616882,983.18445,1.147561822,0.962552781,96.25527807
Low,1.468231071,1.942474902,0.272770805,0.250274844,Sand,2.559322096,4.981460675,84.29432036,7.917768777,22.2707939,16,Steel,Deep,2.968031925,6.632979799,986183.2675,3594.718612,4353.866492,Moment Frame,3.926045993,1.80181916,1152.86266,1.382080165,0.231301687,23.13016869
Low,1.16023429,0.919344353,0.039850403,0.681783392,Clay,2.426844239,7.737569855,42.06991305,7.414169996,61.79814184,18,Concrete,Shallow,4.166092348,8.360409924,833561.7019,9613.626528,22927.51335,Shear Wall,3.46235932,1.015787644,4023.222541,1.27180081,0.367459633,36.74596331
High,0.326340011,0.760285711,0.477768648,1.768351668,Clay,1.737900247,8.345558988,77.01823139,6.289594185,77.61812988,47,Masonry,Deep,0.404118241,5.100497093,994540.6531,9518.694931,9037.065487,Moment Frame,2.310585508,0.640442215,4472.73609,4.434391753,0.507191888,50.7191888
Low,0.767660149,0.195664101,0.124233622,1.170462112,Clay,1.534149257,5.656285348,5.010408121,9.865183499,156.3963169,6,Concrete,Pile,2.21478548,8.197665793,209781.2452,606.5984548,17959.09742,Moment Frame,2.154749621,1.794051388,2490.724497,3.893238867,0.23266917,23.266917
Low,1.105663646,0.20025399,0.429963027,0.807473609,Clay,1.496231325,4.594092806,13.16820707,5.382538328,121.2057284,2,Steel,Raft,2.413035043,6.828242898,186650.5403,2413.681234,41179.0106,Braced Frame,0.455689252,0.073754161,1817.122911,0.465410264,0.394045255,39.40452552
