Seismic Zone,PGA (m/s²),PGV (m/s),PGD (m),Spectral Acceleration (g),Soil Type,Site Amplification Factor,Historical Earthquake Magnitude (Mw),Fault Distance (km),Seismic Wave Frequency (Hz),Building Height (m),Number of Stories,Structural Material,Foundation Type,Natural Frequency (Hz),Damping Ratio (%),Mass of Structure (kg),Axial Stiffness (kN/m),Bending Stiffness (kN·m²),Lateral Load Resisting System,Predicted Max Inter-Story Drift Ratio (%),Predicted Max Roof Displacement (m),Predicted Base Shear Force (kN),Predicted Structural Acceleration (m/s²),Predicted Damage Index (0–1 Scale),Predicted Collapse Probability (%)
High,0.92262022,1.519448708,0.120670156,0.538985583,Soft Soil,1.865205896,4.974811409,75.73907982,5.020534113,125.5173173,24,Masonry,Raft,0.351588858,2.523445096,629244.7855,5608.459422,46139.53991,Moment Frame,0.746381826,1.160837756,4327.062967,0.12264611,0.605589274,60.55892736
Very High,1.081595432,0.515556389,0.098284177,0.513893975,Sand,2.22582468,7.573813088,33.6059989,0.417428819,145.0960876,18,Masonry,Pile,2.635354266,5.596024622,310630.0168,8642.299689,9981.374814,Moment Frame,1.767412211,1.668689078,1678.082991,3.0612004,0.984665494,98.46654945
Moderate,1.05215664,0.213892272,0.252950814,0.878199842,Rock,0.840388445,7.473273269,14.68497659,6.16188176,81.44575929,35,Steel,Deep,3.724992698,4.750012449,713642.9109,3074.001011,40347.94973,Braced Frame,2.619753866,0.399339016,4823.961829,2.290634716,0.288815406,28.88154063
Low,0.671412367,0.348850112,0.384604819,1.391184253,Soft Soil,2.238787287,8.777728672,40.50500475,7.190121382,181.4612558,25,Masonry,Raft,0.780034166,2.972453984,195207.7888,7676.886274,24353.75189,Shear Wall,4.275053251,0.332002886,903.8994876,2.698436452,0.786142982,78.61429819
High,0.121552848,1.251394238,0.031911313,0.450179913,Sand,2.160887328,7.783552861,98.01152885,4.2258157,114.2007779,17,Steel,Shallow,1.262163516,7.486769964,152624.0534,5958.385585,40176.11269,Shear Wall,3.244541946,1.503794014,1246.315088,2.765134341,0.234639888,23.46398883
Low,0.91609648,1.713948172,0.288827152,1.305803416,Soft Soil,1.481663657,4.734206274,23.36225988,7.597226164,92.8260649,32,Steel,Pile,1.770847737,6.681603811,558134.1072,959.9834052,25771.51634,Shear Wall,0.962560725,0.497146154,2345.214766,0.96706955,0.435607978,43.56079776
Low,0.454342155,0.18549396,0.060486011,0.1359547,Rock,0.988747427,8.479103283,61.60370724,2.347312863,131.1011869,24,Steel,Deep,1.246768554,1.896954522,577718.9983,4350.752076,19489.06094,Shear Wall,0.877643291,0.015560824,3997.173194,3.872843797,0.975380874,97.5380874
Moderate,0.730355945,1.494887392,0.019194064,0.812186063,Clay,1.00005799,8.382038233,43.86433193,2.290638252,190.7967504,7,Steel,Deep,2.078415501,9.328480429,151322.3161,2247.149419,35140.30901,Shear Wall,2.120437657,1.824800736,3671.298614,2.821801143,0.766136296,76.6136296
Very High,1.440613421,0.748505427,0.027319232,1.418970611,Rock,2.831092243,6.494941443,8.031432197,1.698028178,159.9376974,13,Concrete,Raft,2.886152028,6.026229692,965967.4481,3912.149085,45130.73744,Moment Frame,0.468444954,1.249644745,913.6067872,1.423952852,0.315821256,31.58212563
Moderate,0.658649445,1.009203903,0.41724789,0.675846025,Rock,2.316414507,7.136383727,49.29978399,3.782748122,12.80256045,27,Composite,Pile,3.487696392,3.251840384,594622.3247,4141.840526,16692.33479,Braced Frame,3.802328257,0.895426019,1221.590879,4.693169578,0.619369283,61.93692831
Moderate,1.275722249,1.864833145,0.059868269,1.058353072,Rock,1.07962575,8.892352496,70.51426854,8.48541915,69.80043259,48,Concrete,Pile,4.826120875,2.856626336,193483.2429,5011.819354,23576.65861,Moment Frame,2.067123719,1.454215655,2897.551796,0.162591179,0.049692084,4.96920835
Moderate,0.363956848,0.730745859,0.023530531,0.448464696,Rock,1.584790972,6.895369637,51.80877761,8.296329415,96.75621357,5,Masonry,Pile,4.668049614,2.223531832,345870.3981,6202.759206,12240.63071,Shear Wall,1.780816487,0.673330149,1511.065489,3.657092349,0.266394917,26.63949166
Moderate,1.041444697,0.984140174,0.219512044,1.361392165,Clay,2.103462587,8.573948228,87.33850031,3.889959659,66.33092658,36,Concrete,Pile,2.936609479,4.821736658,810222.5032,5924.287699,9987.063717,Shear Wall,2.594630829,1.907795454,2140.510356,1.96805241,0.71839049,71.83904896
High,1.467809736,0.125996588,0.422152742,0.188874476,Clay,2.638257751,4.87367441,29.60476465,5.932275486,141.5365744,26,Concrete,Shallow,3.723920271,2.219869118,547069.9515,870.4183447,39116.61698,Shear Wall,3.573888338,0.146554375,2458.641169,2.660469673,0.57009357,57.00935696
Very High,0.242650341,0.255037568,0.13194178,1.549322496,Soft Soil,0.896054043,5.359733409,9.538667959,7.236081533,166.1224842,42,Masonry,Pile,4.764186582,4.742347713,228740.9311,7631.547576,10832.54172,Shear Wall,2.889800028,1.285486899,2991.517726,1.528397772,0.469672853,46.9672853
Low,0.111647919,0.591324023,0.211434596,0.436933857,Sand,1.320592889,6.483397245,93.71999555,2.487947069,147.6122936,45,Masonry,Deep,0.600665334,2.338933854,147706.5235,9517.246902,39872.5904,Braced Frame,4.03177363,1.556806071,1292.704056,1.674135664,0.69087606,69.087606
Low,0.70701591,0.152919258,0.020921344,1.586476654,Clay,2.757447779,7.131405638,38.4414386,1.76459675,197.9199909,31,Masonry,Deep,0.227046847,6.911267694,459235.6916,3812.472245,22031.63554,Shear Wall,3.183876563,0.943560557,857.5437106,0.174314452,0.398458891,39.84588908
Very High,0.229675676,1.299613119,0.225090179,0.69929971,Clay,0.82016421,8.173025333,58.06414959,9.723750333,58.14679134,10,Concrete,Shallow,0.343038866,8.067178195,370543.9733,2207.595563,49757.38745,Braced Frame,3.96105431,1.512387027,2022.88877,3.676240935,0.026156145,2.615614453
Low,1.14773809,0.910156878,0.289228927,1.328562077,Sand,1.243078026,8.947179518,79.40830949,6.213817401,175.6229515,46,Concrete,Deep,2.904076939,5.945704728,673121.4849,5630.01485,10669.72949,Shear Wall,3.51423314,1.854551692,456.029813,3.582912213,0.441026624,44.10266235
Very High,1.380368129,1.141475885,0.28588262,0.642683006,Clay,2.909853187,6.249831734,33.10705272,9.816015646,154.4914197,26,Masonry,Deep,3.861600441,7.120511874,928984.6376,7196.672818,5555.921633,Braced Frame,1.046301917,1.490547862,2657.487597,3.306355182,0.902129192,90.21291923
Low,0.707629362,0.431829653,0.166880919,1.640049841,Rock,2.149484062,4.713370363,71.90028928,3.443784273,75.62485772,22,Composite,Pile,1.961959764,9.445408634,285343.7715,6949.596498,4696.220411,Moment Frame,0.356536806,0.625640066,4206.045538,4.401958335,0.856615128,85.66151283
Moderate,0.462196299,0.662270856,0.158451057,0.315283113,Rock,1.375677007,8.105271765,14.40646613,7.06001383,148.154286,12,Composite,Deep,2.817148039,6.745343766,862472.2366,6315.040986,41935.48223,Shear Wall,4.526644322,1.128074286,638.9295142,4.516211145,0.408997185,40.89971854
Low,0.708164647,1.361266502,0.054205186,0.403483642,Sand,0.947380408,7.219713236,29.83808097,2.303776002,25.2948115,32,Steel,Shallow,2.678558329,4.277423784,924438.8795,1889.206395,22451.03924,Braced Frame,4.73371521,1.824091001,608.016134,2.826577165,0.022221441,2.222144076
Very High,1.112826945,1.934075175,0.184032362,0.938151213,Soft Soil,0.862020949,5.393442865,15.32635298,2.685881696,158.9200291,27,Masonry,Pile,0.65490028,5.045321428,906902.4695,8449.836497,1153.093133,Moment Frame,3.661968253,0.903704474,447.0781044,3.455635111,0.636307273,63.63072726
Very High,0.112675826,0.19579187,0.05064784,0.239295346,Soft Soil,1.338439175,6.726728055,81.31182528,5.167831001,108.8044675,33,Steel,Raft,1.743623668,8.744727035,954473.4634,4543.404843,43863.79676,Shear Wall,3.648608531,1.366580005,4246.913384,0.153892165,0.741194428,74.11944278
Very High,0.925235585,1.79173021,0.383531376,0.433166314,Sand,2.739268803,7.840396105,23.04227429,3.264219443,61.99658368,20,Composite,Pile,0.293288745,2.176482871,850003.191,2603.951539,43969.12934,Shear Wall,1.423720694,0.936374303,449.4892299,4.247080988,0.294243576,29.42435761
Very High,0.958608359,1.196074282,0.483170875,1.70440285,Sand,1.715010039,7.966853042,72.02295199,1.759453482,132.8765738,39,Steel,Shallow,0.731387306,3.931633202,613811.7051,1319.52834,40514.41703,Shear Wall,2.757964374,0.251474872,4918.137075,4.100425778,0.476664,47.66639996
Very High,0.992763546,1.171447177,0.485067154,1.760032424,Rock,2.384733412,6.748282854,94.38654133,2.70251895,130.1158997,41,Masonry,Pile,4.09691947,6.195520621,439353.7938,4458.831592,13167.60567,Braced Frame,4.961974352,0.126609295,1823.739906,0.19921823,0.991856795,99.18567952
High,0.438830912,1.050529217,0.432670479,0.73964086,Soft Soil,2.820227078,5.873465386,53.2494487,0.453909105,45.84981343,40,Masonry,Pile,4.181184787,7.087506125,517103.3967,6370.743945,19264.88328,Braced Frame,4.295103631,1.90502518,1677.372688,2.759843562,0.576343013,57.6343013
High,1.099673813,0.231848763,0.300795283,1.669586236,Clay,1.697689016,8.881841619,54.46289003,7.073793853,10.92749589,13,Masonry,Shallow,4.049342336,7.871491679,878981.5661,6821.088237,37501.38503,Moment Frame,1.591532328,1.228958129,503.5771729,4.542612295,0.351074906,35.10749057
Low,0.227948081,0.270766018,0.350731983,1.026201949,Rock,1.220810216,7.485131749,46.64232324,4.971954905,89.55640445,14,Concrete,Pile,3.688729477,3.863861164,336328.4585,9646.000658,24978.30314,Braced Frame,1.575124742,0.216591677,2948.924003,0.988801136,0.627488877,62.74888766
Very High,0.378978471,1.241732811,0.143317696,0.558562192,Sand,1.937659448,6.337068837,33.2631242,1.033006357,116.0548145,44,Steel,Shallow,4.007901663,2.312732206,201298.6096,1954.906795,8537.502259,Braced Frame,2.469528727,1.716302731,2950.116951,1.827960116,0.180022307,18.00223069
Low,1.328458065,0.747821286,0.31575444,1.294077826,Soft Soil,2.797784112,5.762084509,48.08984806,1.799770532,175.9380293,40,Composite,Shallow,3.420715238,9.593552887,183778.2572,9864.849819,12897.11496,Shear Wall,2.082533464,1.050159342,2494.338845,1.722163025,0.199252373,19.92523733
Very High,1.134212411,1.842809326,0.228369125,1.220133071,Clay,2.569623711,7.789963424,60.67794569,1.115091927,186.0022752,22,Composite,Raft,3.415200026,1.687529954,835644.8794,6719.420865,48656.8873,Shear Wall,1.918649927,1.546144903,1589.549729,1.844108329,0.924924715,92.49247147
Very High,0.119243776,0.872522021,0.241526653,1.781513042,Clay,0.944825655,5.589825505,98.61316564,6.164668802,108.1170175,18,Composite,Deep,3.403336628,1.862248202,773411.402,4815.176048,8399.642754,Shear Wall,3.172162353,0.262244829,1874.475406,0.305241549,0.239200041,23.92000412
High,0.447726765,0.372234772,0.379130504,0.550580389,Rock,2.32366016,5.27269495,93.83869137,1.0326826,151.9916793,48,Concrete,Deep,2.66740539,5.454482877,522763.074,8937.845146,36577.95708,Shear Wall,0.156313101,1.814751759,1636.491799,1.46718665,0.310789379,31.07893792
High,0.400169076,1.457965784,0.141677259,1.242501155,Soft Soil,2.058174549,6.8842525,86.35314287,7.567395097,90.6641381,29,Concrete,Pile,1.944066721,8.373439253,311127.8567,7097.557549,24422.89703,Shear Wall,3.840364217,1.185165525,2159.424721,1.544795932,0.543777242,54.3777242
Moderate,0.479128859,0.657371501,0.159701766,0.188440384,Soft Soil,2.796418988,5.804943267,89.02392303,0.303058101,150.4860205,43,Masonry,Pile,3.704937278,7.970536957,693732.5168,3812.813541,37681.48132,Shear Wall,3.726259684,1.479138755,1741.851122,4.342773038,0.89969262,89.96926203
High,0.446583678,1.098393584,0.462396254,0.293198266,Sand,1.069459117,7.330073152,47.31706915,2.568820301,44.93629736,16,Composite,Raft,1.633500865,9.439293396,86511.44256,8898.814117,33394.54882,Shear Wall,4.168595835,0.072445579,3393.810733,1.825368435,0.78144889,78.14488897
Moderate,0.187536814,1.425882292,0.029055923,0.106661237,Soft Soil,1.974879449,5.030724037,66.08698839,8.917600091,77.35762329,46,Concrete,Raft,2.805930231,2.274423181,589816.4249,6832.84684,22519.19234,Moment Frame,4.223108299,0.637456751,1514.143038,2.291362025,0.043783921,4.378392067
Moderate,0.742516723,1.810501811,0.243331515,1.799083158,Soft Soil,2.734817926,7.447234971,89.61160557,7.213460049,128.6744598,35,Masonry,Raft,2.280106977,4.381545314,428503.9103,7138.95488,18341.63041,Moment Frame,2.875358504,0.542216375,1786.649246,1.965616493,0.693029669,69.30296689
Moderate,1.125826865,1.60516327,0.456487599,1.463865285,Rock,1.702052331,5.774834376,39.90212573,0.822386496,8.540803293,34,Composite,Shallow,1.52778693,3.539279158,978966.6521,9015.703937,37963.60346,Moment Frame,3.922362285,1.899694041,2205.52643,0.691299903,0.504061483,50.40614827
Moderate,0.949424415,1.385086029,0.305571141,1.437429125,Soft Soil,1.860388819,4.501093205,96.21448536,8.229148434,145.8799555,3,Steel,Raft,4.878511618,8.747831112,532182.2367,4759.953976,16833.91911,Moment Frame,2.512736115,0.378823752,69.61107964,4.952748113,0.475552842,47.5552842
Moderate,1.042020336,1.391303047,0.27365713,0.966534328,Clay,0.955013491,5.07121226,42.16282014,4.981047703,167.9294227,4,Masonry,Raft,1.442007897,5.395191583,574654.3648,6740.589007,39600.80252,Shear Wall,4.762496198,1.417032936,2485.808742,4.146543434,0.691558367,69.15583668
Low,0.21360885,1.897256824,0.125622345,0.610114041,Rock,1.411916009,8.7012692,60.50718387,8.483151969,82.83262391,5,Concrete,Pile,1.684606706,1.24163141,726744.5303,7574.545706,34312.31025,Moment Frame,1.034422796,0.09507954,1316.308026,2.750509504,0.196232046,19.62320462
High,1.432086994,0.662065785,0.172294469,0.357149284,Rock,1.513914628,8.403095876,71.27066661,6.047323767,92.34877135,10,Concrete,Raft,0.975620008,7.371679662,510311.5571,4812.430552,29305.78934,Shear Wall,4.586523751,0.403391331,327.9447474,2.434186023,0.981488664,98.14886637
Moderate,1.273888567,0.102112979,0.426172159,0.583947056,Sand,2.879269387,5.551240644,95.10860929,6.850147017,171.0000314,29,Masonry,Shallow,4.150307002,4.49828288,263340.1883,1292.7951,19071.24336,Moment Frame,1.36679877,0.683808735,4559.555429,3.281348155,0.64530653,64.53065303
Very High,1.227126446,0.616713663,0.280049848,0.739151077,Soft Soil,1.421868193,8.00267357,25.21701113,9.935665448,156.2526539,32,Masonry,Shallow,3.015629123,5.78032087,560413.9542,7828.677806,11048.98653,Braced Frame,0.603344531,1.591066637,1645.972733,1.699512628,0.365656175,36.56561746
High,1.252177327,0.513993621,0.257856355,1.385727165,Sand,1.813911218,7.238572169,74.86696685,2.400121905,61.18915036,31,Concrete,Pile,3.142588431,9.044086843,947055.4273,954.2553511,35810.57026,Moment Frame,2.251611792,1.582053394,2159.122055,0.346386065,0.600202208,60.02022081
High,1.405794711,1.357485712,0.050690277,1.017425041,Clay,2.276869732,8.869071202,52.56074303,6.27706119,68.17534078,2,Steel,Raft,4.138694777,3.310639972,439415.4388,7320.186816,5476.112131,Moment Frame,3.113094488,1.905677705,4145.348634,2.081152387,0.216470863,21.64708633
Moderate,0.861955553,1.30405204,0.00899805,0.231722165,Rock,1.156803419,6.181225468,27.58715692,4.657181762,137.3812553,12,Composite,Raft,1.846014361,3.162382081,695658.9072,9153.314481,48556.57055,Shear Wall,1.231850379,1.83436733,875.6054052,4.921490129,0.633841865,63.38418649
Low,0.380394825,1.227576627,0.481878909,0.130649315,Rock,1.870173252,7.566572756,77.88407714,0.490574334,114.823628,27,Steel,Shallow,1.129440442,3.368732538,979132.4794,3796.205485,48958.64782,Moment Frame,2.823401582,0.172214044,4259.028607,0.993499349,0.028217141,2.821714074
Moderate,0.963497051,0.130862542,0.189116097,0.273964705,Rock,2.424785887,4.785910751,55.67000574,0.243259351,36.63476636,5,Masonry,Raft,1.152345747,4.042971921,838426.1973,1469.586959,7380.908182,Braced Frame,4.058677449,1.661436767,1246.107843,2.685755932,0.341181911,34.11819114
Low,1.140034091,1.484678303,0.302003318,0.797847813,Clay,2.707081469,6.283113061,66.43640824,1.28036292,65.4363323,37,Steel,Raft,3.716575143,1.966185772,676082.4264,2712.207903,6092.830826,Shear Wall,1.359716332,0.907835423,2965.737563,0.141754842,0.747516897,74.75168967
Very High,1.133084351,0.714707784,0.040777822,1.686427959,Clay,2.177770404,8.837179475,32.96720579,6.526008231,180.496739,27,Concrete,Raft,3.147752741,7.274976947,749196.6639,5841.674859,21223.11963,Shear Wall,2.943579005,1.733113321,3444.107982,0.697954424,0.807977849,80.79778491
High,0.830028634,1.363606379,0.341874029,1.183584218,Sand,2.271917734,6.925413935,48.64612123,5.71491457,139.1940152,23,Masonry,Deep,1.190426617,2.86658846,939659.0856,9455.26756,48220.48034,Moment Frame,1.762631721,0.187679641,4529.819032,2.977239332,0.252919413,25.29194133
Very High,0.195842207,1.157499014,0.466350788,1.46310403,Sand,1.07782364,5.795457765,62.11807085,5.578952656,197.2649919,33,Composite,Pile,0.896313894,9.335311725,961764.4992,5366.685934,20615.23406,Shear Wall,2.695865491,1.647310512,3057.808074,1.557328255,0.539409461,53.94094613
Low,0.619558114,0.751188758,0.288256961,0.892836811,Sand,2.880708294,5.041219334,41.08617061,0.415381949,154.5674433,4,Concrete,Deep,0.779299065,2.941176825,970519.7238,1571.004238,18826.30331,Shear Wall,3.367903196,0.327688613,2293.497416,4.537853984,0.52849289,52.84928897
Low,1.389073252,0.355694907,0.063931546,0.714832341,Soft Soil,1.09166297,7.665877531,20.63888144,4.746099664,188.6850143,21,Concrete,Pile,3.213433509,3.300778264,644359.5468,6463.94015,35475.66789,Shear Wall,1.817070602,0.674344844,2882.733294,2.090231853,0.421456046,42.14560464
Very High,0.918228474,0.279395906,0.291279042,0.284280634,Rock,2.504280462,7.401852195,96.20240874,9.253765897,47.1567719,24,Composite,Shallow,0.200569496,3.673182059,415476.0674,7462.026899,9757.830593,Shear Wall,4.972966124,0.067408317,1050.308191,1.119364626,0.228432983,22.84329828
Low,0.853664721,1.679884833,0.383407259,1.589086138,Rock,1.382595908,6.182724211,51.63528646,4.036159506,155.4395506,44,Composite,Raft,0.287932844,7.916842873,176495.4725,4236.194865,18802.8507,Shear Wall,2.862498472,0.256218895,3460.917954,2.773399669,0.703228233,70.32282332
Very High,0.47639492,1.84495533,0.203801852,1.431372049,Sand,2.853904916,8.779236083,73.65811666,6.286732451,8.942416429,31,Steel,Pile,2.069855051,4.848458387,416270.6013,7354.383611,15274.06487,Shear Wall,4.13986164,0.896994512,975.0595247,3.995370812,0.252361682,25.23616817
High,0.615828488,1.334597289,0.440039036,0.385800766,Rock,2.383910987,4.599912658,41.69367216,7.820204889,135.7982042,44,Masonry,Deep,3.518479349,8.374011616,945807.682,3585.816744,30475.19651,Braced Frame,3.653162592,1.638493288,2808.37568,0.195156511,0.911025737,91.10257372
Very High,1.353484525,0.296524818,0.324692794,0.970842959,Sand,2.458390169,5.866757332,36.15804464,7.860860264,96.51004423,48,Composite,Raft,3.536189007,8.063683411,895307.2266,7996.35644,8974.891424,Moment Frame,4.278746037,1.549602845,3255.638124,2.577048581,0.528501291,52.85012911
High,1.033048267,0.863851712,0.44972521,0.928537173,Soft Soil,1.281930181,8.644812688,41.30926555,5.240872816,72.61821402,24,Composite,Shallow,2.264567713,9.365413805,547476.679,3740.185516,27886.36152,Braced Frame,0.951624677,0.478242546,4497.986743,3.889790128,0.870478337,87.04783373
Very High,1.202341837,1.48498448,0.31212915,1.16265564,Soft Soil,1.774687949,5.944209472,41.51046773,8.593724259,173.1688487,49,Masonry,Pile,3.517153312,7.809437396,560156.9223,2933.01737,43019.78291,Shear Wall,1.190513178,0.311863994,2278.439639,0.607584408,0.290742721,29.07427208
Low,0.736083592,1.58165968,0.066512698,1.70851772,Clay,2.159189028,5.635137752,54.87383148,3.974643124,171.5822001,10,Composite,Pile,2.701261662,1.467200527,343474.3321,8852.223356,26194.35679,Shear Wall,2.488314772,0.784634291,3887.899472,4.523712743,0.807079156,80.70791563
Very High,0.982346107,0.324615382,0.155536164,1.085611451,Soft Soil,2.49394196,6.903991845,54.80351713,8.898062826,9.348832455,49,Composite,Pile,4.889270801,8.535531463,481782.4956,5710.497501,34491.33424,Moment Frame,4.276410515,1.767704011,879.2759171,1.396135309,0.113663585,11.36635849
