Seismic Zone,PGA (m/s²),PGV (m/s),PGD (m),Spectral Acceleration (g),Soil Type,Site Amplification Factor,Historical Earthquake Magnitude (Mw),Fault Distance (km),Seismic Wave Frequency (Hz),Building Height (m),Number of Stories,Structural Material,Foundation Type,Natural Frequency (Hz),Damping Ratio (%),Mass of Structure (kg),Axial Stiffness (kN/m),Bending Stiffness (kN·m²),Lateral Load Resisting System,Predicted Max Inter-Story Drift Ratio (%),Predicted Max Roof Displacement (m),Predicted Base Shear Force (kN),Predicted Structural Acceleration (m/s²),Predicted Damage Index (0–1 Scale),Predicted Collapse Probability (%)
Low,0.446276442,1.414821386,0.085236193,0.383115473,Sand,2.502789192,5.503905083,21.1039887,1.219746989,130.6513116,9,Composite,Deep,3.997146289,1.032516393,528209.0553,9940.815402,19818.32176,Shear Wall,0.131855619,0.065757514,4048.783926,4.180063154,0.537539204,53.75392044
High,0.996861257,0.970065089,0.427117498,1.776500555,Soft Soil,0.914559294,4.754320609,40.79324054,8.299908292,152.7144154,4,Steel,Shallow,2.445995033,3.283248656,656711.572,5181.838221,30883.67499,Shear Wall,2.691580436,1.203660912,3381.819137,0.280573922,0.191339203,19.1339203
Low,1.033240671,0.530391089,0.007601178,1.495443316,Rock,0.828207629,4.965277215,84.72874295,2.593348287,28.00590489,45,Steel,Pile,2.924171775,5.44502217,212507.0879,5942.227038,25605.84274,Shear Wall,2.145714977,1.595533927,252.3261886,1.340678976,0.256687819,25.66878187
Very High,0.327779641,1.266543582,0.256378448,0.578511414,Sand,2.550197662,6.441786539,35.28033903,7.795291267,167.4758441,23,Composite,Deep,3.997780417,6.568186147,867409.1347,2080.991762,36208.13136,Moment Frame,4.000580124,1.505577152,1786.167449,4.603057782,0.1248425,12.48424998
Low,0.891119437,0.580430425,0.384951847,0.219116783,Rock,1.849722027,5.534632669,65.80749816,9.57536025,142.5958618,43,Steel,Shallow,2.886840766,1.590317782,555412.8047,8996.188283,8652.08299,Shear Wall,2.759004876,0.168144312,3426.756242,4.335223344,0.71338141,71.33814099
Very High,1.180277675,1.197500333,0.467462963,0.196263448,Soft Soil,1.087938505,6.821756453,71.22211519,6.998275588,117.5816364,45,Steel,Pile,1.919837185,7.345719354,440394.7416,2697.010847,46101.61079,Moment Frame,4.689859613,1.900999875,2889.71511,3.929029122,0.361551927,36.15519265
Very High,0.79845393,0.782496619,0.454691866,0.304642854,Clay,1.318245056,5.64072189,59.03205305,6.000698593,178.4983903,43,Concrete,Shallow,0.612042933,5.891824879,621950.9893,2301.652485,32538.00708,Moment Frame,1.061089914,1.40909644,4891.433179,2.341981423,0.220266153,22.02661532
Very High,0.116944363,1.664749231,0.40999281,1.087306592,Soft Soil,2.851508697,8.732417855,36.36695485,4.657823139,141.559739,8,Concrete,Pile,3.703595022,5.732013761,653206.0273,2667.162832,14276.73285,Braced Frame,4.951736668,1.898732987,4337.271122,1.674929095,0.507324149,50.73241492
High,0.112653857,1.659322705,0.444207483,1.678897816,Sand,2.690906546,8.576747856,58.12828083,3.707657673,44.33149271,39,Composite,Raft,4.381463121,3.628410023,90644.11693,9236.406175,7039.431699,Braced Frame,1.559804052,0.66490454,345.7051084,4.419574604,0.068249306,6.824930569
High,0.599841082,1.006965756,0.100410623,0.944463828,Clay,2.36152711,7.050627473,34.88429369,3.594747035,88.80034931,25,Concrete,Deep,4.856309778,6.353407895,999898.0334,7177.043718,8336.552643,Braced Frame,3.247877471,1.390938865,3642.556628,3.319663042,0.923406606,92.34066063
High,1.396671696,0.766556308,0.142807964,1.53300732,Sand,1.860895507,6.094907964,9.303500117,6.400089787,101.3383591,16,Concrete,Shallow,4.647679428,1.247436007,395723.598,7801.665748,39350.48342,Braced Frame,2.559083197,1.721278106,1714.816731,1.54799339,0.294467521,29.44675212
Low,0.420147491,0.788863613,0.145195294,0.858007254,Clay,1.944711978,6.215160969,99.28759384,7.537603858,15.76743722,35,Steel,Pile,4.027605962,1.582302975,108465.5146,4081.845403,29817.39261,Braced Frame,1.861924366,0.767123804,3426.30938,2.369659802,0.886464348,88.64643482
Very High,0.988109164,1.630857599,0.189149912,1.304592028,Rock,2.945537978,6.353335274,13.59106291,6.817318988,191.1543151,17,Masonry,Shallow,3.288665275,7.604830785,859707.016,9137.181642,19657.15625,Moment Frame,0.782614998,1.930071238,3105.261701,4.419351089,0.497620065,49.76200653
High,0.410906219,0.723541017,0.197267015,1.344183653,Rock,2.924694977,7.77410695,8.16249,2.064260002,30.07256586,18,Concrete,Shallow,3.9510087,3.897022083,993367.7453,7999.375547,17312.14146,Moment Frame,0.760687342,0.537335655,2540.098783,4.526931637,0.850150498,85.01504977
High,0.550337986,0.49721281,0.272733107,0.3957383,Rock,1.273591901,6.53237548,87.97454417,4.990473083,141.0049471,27,Masonry,Deep,2.274001822,4.122703681,825540.5838,7630.674944,42932.14222,Shear Wall,3.586378554,0.638071116,4272.100294,3.33058026,0.247064441,24.70644408
Low,1.287258925,0.26090785,0.080780002,0.7140673,Soft Soil,2.584430046,8.355284759,30.88163143,7.937236715,103.715052,15,Concrete,Raft,3.054925831,2.875466829,859288.3654,9723.932695,43863.36367,Moment Frame,1.950442777,1.841453867,3558.014808,3.689523718,0.175270602,17.52706022
High,1.120406019,0.98671693,0.345932085,1.183413666,Sand,1.233933866,8.748426537,65.37940043,4.809470374,9.998288727,17,Concrete,Shallow,1.873759084,5.010586229,644638.3585,3978.869893,29481.83988,Moment Frame,4.810360073,1.939622896,4453.297817,0.292559383,0.849411803,84.94118032
Low,0.233558988,1.016050988,0.084615703,0.220184234,Soft Soil,1.269782451,6.01175769,33.57156724,5.412570469,185.3257578,43,Composite,Pile,1.768204232,1.467940883,926209.2993,6304.249645,26702.65922,Braced Frame,1.695677584,0.577539539,1443.938558,3.062542487,0.212923882,21.29238824
Moderate,0.700182829,1.69772655,0.155843933,0.714618319,Rock,2.287404675,7.023125166,39.75397281,7.734246877,171.1081777,5,Composite,Pile,3.832120512,3.703269012,83951.62414,9144.33214,41005.95406,Moment Frame,4.919266237,0.281416179,1773.231247,3.476063585,0.746195349,74.61953493
High,0.140837669,0.520353523,0.25216922,1.009159093,Sand,1.691002417,4.927754416,26.94918423,6.646526532,107.2302959,16,Composite,Raft,2.378877355,5.744115296,778387.6698,8013.44496,37717.42381,Braced Frame,1.106573957,1.520520265,3128.659182,0.199848021,0.344583795,34.45837947
Moderate,0.773246205,0.82388342,0.39842384,1.793581638,Rock,2.849397696,5.402110715,34.96135657,4.152514717,49.64375555,15,Masonry,Pile,1.218374062,5.190687294,687174.7169,5852.100103,20615.93398,Shear Wall,0.603790493,1.86003388,4833.998965,4.234909041,0.748193726,74.81937264
Low,1.027407616,1.635970904,0.369995147,0.906707056,Soft Soil,0.995821417,6.36059595,41.65933966,8.964585841,28.71646368,42,Steel,Raft,1.169303177,9.997026788,97105.722,1224.030005,5054.195553,Shear Wall,1.631591694,1.205420151,1889.331392,4.648596557,0.907646266,90.7646266
Very High,0.265903673,1.66488486,0.323121644,1.487296487,Soft Soil,1.92535641,5.427912222,72.32119084,1.70941398,75.86153349,46,Concrete,Pile,4.324027336,4.498881869,566774.9,6700.872676,38656.50526,Moment Frame,4.439365468,1.272692719,209.8535678,1.265888617,0.981638431,98.16384313
High,0.504438914,0.830761044,0.078730857,0.834514385,Soft Soil,2.820747367,8.444522209,51.64208323,9.955612841,54.8085148,34,Concrete,Deep,3.453250373,4.482991533,539307.3285,5502.27779,9266.350418,Shear Wall,2.657074528,1.528257235,2257.145379,4.24440007,0.359809477,35.98094773
Low,0.656971276,0.972335644,0.273975627,1.453864228,Rock,2.789050053,5.212288152,94.4129565,1.276640527,103.8047842,48,Concrete,Shallow,2.821021152,5.532235997,706957.5138,2249.714384,1802.468417,Moment Frame,0.764685519,0.314638789,2742.451335,3.361011655,0.367525835,36.75258346
Very High,1.387343435,0.676243193,0.044635804,1.112205163,Sand,1.14436427,6.550473697,5.14615899,0.248004714,193.4498127,19,Masonry,Deep,2.124505933,2.712727992,123654.841,8881.404672,42321.83108,Shear Wall,1.092245343,1.947203104,4014.887673,2.945409517,0.981387737,98.13877368
Very High,1.490557022,1.871854269,0.189304225,1.607212251,Sand,1.60660294,7.225646582,50.80376394,8.911187121,117.1159312,8,Composite,Shallow,2.267923476,8.886739807,815014.8461,3760.861652,29334.43842,Braced Frame,1.625177245,0.735015476,3656.572376,4.231317271,0.86152813,86.15281303
Moderate,0.162875819,0.325423155,0.207344749,0.798602339,Rock,2.16206708,7.613387587,58.83825409,2.525039733,178.5365559,47,Steel,Shallow,0.475688932,6.1504101,182433.2699,4181.058988,44691.63574,Braced Frame,2.991817015,1.260198448,4825.08027,1.499491625,0.045091972,4.509197191
Low,1.165411093,1.874123904,0.020865908,1.127317514,Sand,1.150668746,6.223812164,92.09950162,7.324026312,131.9213733,10,Masonry,Shallow,2.383568695,2.728968753,447731.3828,6887.814714,24744.81608,Braced Frame,1.728656805,0.942545881,3924.279665,3.975195271,0.573449986,57.34499862
Very High,0.620413693,1.399346258,0.137720062,1.171031757,Rock,2.929648779,8.410945809,5.866693839,8.129052212,97.67307268,5,Composite,Deep,4.018183571,8.140974322,887223.6071,5143.588049,46397.57393,Braced Frame,3.760565002,0.94168015,1528.210763,1.641151762,0.181244772,18.12447715
High,0.649441461,1.10998709,0.477869084,0.809551001,Sand,2.812448523,7.05743618,57.77645891,8.603965271,171.6484747,48,Masonry,Shallow,2.062335104,1.30898954,582505.0252,1348.170225,18344.61565,Moment Frame,3.119838425,1.408461301,3224.832539,3.95853706,0.994012536,99.40125361
High,1.155970963,0.162052215,0.476862671,0.345330474,Clay,1.167290394,6.477785012,85.50936292,9.916782933,96.91678148,26,Steel,Deep,2.041190012,9.843077805,410611.3681,4180.695365,36501.57811,Shear Wall,4.381736313,1.989377975,3377.593907,2.310164628,0.138923012,13.89230124
Moderate,1.385797005,1.003632764,0.1768112,0.259050992,Clay,1.066542015,4.802582853,24.95084508,3.010993129,174.3824932,22,Composite,Raft,0.275439598,8.786344013,95792.12994,1397.42812,15748.33895,Moment Frame,2.554712949,1.321529102,4990.201548,0.67303281,0.559347613,55.93476125
Very High,1.431300032,0.8747214,0.022506954,0.128341636,Soft Soil,0.987898662,6.591102608,87.7529425,7.131409085,61.85747007,44,Masonry,Pile,2.39760926,6.2167551,688659.8413,2312.12883,1057.019552,Braced Frame,1.722764429,1.590177672,736.7526606,1.969447315,0.66519837,66.519837
Low,0.90797162,0.406315743,0.090368375,1.585008249,Clay,2.800776061,8.193311284,2.885297518,1.242458597,30.11854938,23,Steel,Pile,0.321620734,2.001660965,987219.427,568.1571643,19607.48219,Moment Frame,4.981730682,0.064955954,997.0612383,1.244117064,0.937064655,93.70646547
High,0.599969623,1.347178247,0.196716679,0.502007351,Clay,1.225972382,7.265434582,73.51300828,4.127411984,171.7863206,13,Concrete,Shallow,2.937677254,2.93745496,916206.5788,2222.474274,37150.51014,Shear Wall,1.842603277,1.622750464,819.7925378,0.592604599,0.847258312,84.72583116
Very High,1.20256872,1.945186724,0.473942069,0.459561474,Clay,1.715826843,8.244731042,93.3782089,8.494919764,119.5459569,9,Steel,Deep,2.632560232,3.514916533,731431.2737,3639.249863,8351.184793,Moment Frame,2.200152935,0.606952005,2965.847565,0.640406635,0.245754771,24.57547713
Very High,0.451401937,1.168158741,0.071458333,1.351260181,Rock,1.787473004,6.723052518,66.0625685,3.739814656,178.3730177,49,Concrete,Pile,4.232040795,3.169285641,150028.2153,5613.07512,25735.29963,Shear Wall,4.064723404,0.262136672,719.7403076,3.922349853,0.572623951,57.26239513
Moderate,0.88970364,1.458031225,0.381994406,0.644027392,Clay,2.117824297,5.033077673,44.46389515,5.951844267,187.8763054,20,Masonry,Deep,2.992546932,5.477680094,277468.0887,9233.133506,11403.75276,Moment Frame,0.534317546,0.23553483,3297.238159,4.418849477,0.953573958,95.35739579
High,0.602009846,0.23005586,0.055232587,0.960275977,Clay,0.957817756,4.561379306,5.443220631,5.087357093,15.45753612,28,Composite,Deep,1.752451306,9.501043332,227506.5685,5633.105239,4656.58195,Shear Wall,1.99380152,1.36295088,4028.681552,4.642932685,0.735716847,73.57168471
High,1.019283503,0.893567292,0.490647531,0.376268811,Soft Soil,1.298868958,5.86448796,92.09126752,6.494920158,102.6890139,44,Composite,Shallow,2.677908845,4.997553263,387688.5582,7203.233643,31255.14712,Shear Wall,0.519979458,1.995257504,2192.324975,4.284336244,0.688336348,68.83363484
Low,0.436558478,0.321081122,0.191426633,1.731567726,Clay,2.849278851,7.640957122,47.55932605,9.731654455,78.11808707,37,Masonry,Pile,3.558590508,6.954081114,273741.3664,3897.932367,47646.41349,Braced Frame,0.782598747,1.335728246,2825.391155,4.168098077,0.754901079,75.49010793
High,0.368230124,1.264312088,0.387842035,1.54768838,Clay,2.798502236,8.056169568,3.870677689,0.651781712,127.0423874,24,Composite,Shallow,0.651026218,7.197248854,282217.4737,7640.492539,16224.50672,Shear Wall,0.122740045,0.532072819,4567.974312,0.437295672,0.322506189,32.2506189
Low,1.385534721,1.883116101,0.17195295,1.568442359,Sand,2.518839424,5.830887756,69.29228606,5.782219023,159.7502835,44,Composite,Shallow,3.181155625,8.844226527,635893.4386,6394.453087,29451.64422,Braced Frame,0.146767034,0.414578882,2869.351292,3.971605614,0.729252269,72.92522694
High,0.242525156,1.357377692,0.31420677,0.791515373,Soft Soil,0.84268274,6.730442644,48.7018881,8.643984915,59.71509212,33,Concrete,Pile,4.599806153,1.304391588,352767.5232,4868.043126,47726.56502,Braced Frame,1.963410659,1.056654628,1082.597483,3.938085032,0.232854751,23.28547514
Moderate,0.808341071,0.245925792,0.096816026,1.396014063,Soft Soil,1.519414891,6.39503507,13.31018643,4.865688846,113.575685,20,Masonry,Pile,1.635825419,4.638970534,693304.7326,2340.803551,32873.68415,Braced Frame,4.064902644,0.139428206,1748.809302,0.743322931,0.428102771,42.81027709
High,0.409193896,0.773865789,0.073864489,0.344589464,Soft Soil,2.181509218,6.34735253,22.21290912,0.877419141,143.2020731,48,Steel,Raft,3.207800455,8.062616027,950495.1762,3383.638626,33982.55181,Moment Frame,2.976321367,0.804668358,2672.736727,3.343845236,0.889928817,88.99288172
Low,0.154501949,1.146260421,0.469094006,0.114652304,Soft Soil,1.405418466,5.541069209,7.384577365,5.649339589,31.21406115,30,Concrete,Raft,4.142381362,8.333803135,656554.0208,6398.98783,9767.497066,Moment Frame,3.211078816,1.335807459,816.7435432,2.317285949,0.018971146,1.897114649
Low,0.150426346,0.866094737,0.458905992,0.133953985,Soft Soil,2.801090729,5.113669973,57.85506043,3.387531519,163.7430467,44,Masonry,Deep,2.656670708,9.345993537,764073.8433,4547.535081,25137.87426,Moment Frame,2.644321264,1.935647929,3081.973185,4.510066265,0.41431865,41.43186503
Moderate,0.345310481,1.68392362,0.443847001,1.097222954,Soft Soil,2.194556816,5.385098512,62.58091845,1.633923675,123.191372,9,Concrete,Pile,3.646301763,7.325149238,764001.3945,8949.172289,18987.05461,Moment Frame,4.116986406,0.857050361,4996.268155,3.507500976,0.266821767,26.68217667
High,1.313478496,1.647874909,0.313091292,0.874171339,Rock,0.958194778,4.748995742,51.06848754,8.505441682,190.1598002,45,Steel,Raft,1.692849625,3.206385515,364167.649,2730.98258,24076.88577,Shear Wall,4.413855753,0.408445641,3280.048076,4.759838928,0.198589616,19.85896165
High,0.495470242,1.262478938,0.404325837,0.980626093,Clay,2.799812295,5.391588338,81.89311117,5.263835179,71.20813923,49,Steel,Deep,1.669080574,5.550991688,64210.09486,1194.190196,40240.50225,Shear Wall,4.263729568,1.636551183,1893.435163,0.614120962,0.838575421,83.85754215
Moderate,1.430642839,0.809570096,0.035449432,0.112687339,Soft Soil,2.907086648,4.541404039,86.23987331,9.339436483,26.08845876,17,Masonry,Deep,3.404403305,1.291107591,102295.5648,6098.811477,23574.2504,Moment Frame,4.079447318,1.490957054,1692.145134,0.298975841,0.696498573,69.64985728
High,0.91427121,0.58513911,0.168059732,0.818567253,Clay,0.97096732,7.322662803,61.94681527,8.079563396,103.7677342,36,Steel,Deep,3.585962595,6.82235507,317957.2383,8917.482982,4079.683235,Shear Wall,0.99529406,1.720810738,4661.436447,4.870538853,0.11263272,11.26327204
High,0.711259866,0.301161205,0.157537859,1.320715874,Clay,1.971192517,5.923689333,2.262891491,6.960420758,21.73310048,14,Concrete,Raft,4.697646558,5.988656904,705066.0245,3965.02078,45371.5414,Shear Wall,3.009993504,0.437290268,4363.995738,0.492941591,0.494463327,49.44633265
Low,0.912124369,0.774305599,0.318187016,0.852579293,Rock,1.467401421,8.879151201,69.82773592,0.149752483,194.057672,19,Steel,Pile,1.279225159,7.001526527,911348.9817,6653.257681,27695.97849,Braced Frame,2.952599661,0.81561607,2388.17517,1.992359522,0.466905772,46.69057718
High,0.823377739,0.885027783,0.178622929,1.344772651,Soft Soil,1.664245968,5.371726728,42.38192248,4.335452221,12.54356686,7,Concrete,Shallow,2.447444461,9.37126498,960858.3491,2698.419911,46300.22357,Braced Frame,2.686925618,1.963293331,1799.402094,3.284856049,0.142527794,14.2527794
High,1.162286755,1.384063558,0.075104884,0.496132239,Sand,1.19523268,6.056228566,56.99019084,2.055114188,151.9332607,3,Concrete,Deep,1.402464671,7.185489505,74556.23065,5805.483256,29045.37109,Braced Frame,2.455982668,0.324504216,3566.798204,4.412277699,0.799762701,79.9762701
Moderate,0.495494492,1.350503666,0.298637071,1.482341408,Rock,2.071758624,6.110285214,65.2589796,9.116899319,107.3949676,33,Steel,Raft,0.584442372,3.884049373,990582.8834,7974.524958,4412.179483,Braced Frame,0.536935338,1.34618713,1606.787254,1.347428859,0.366673971,36.66739715
Moderate,0.594270548,0.233205465,0.407377576,1.100333109,Sand,2.907554577,4.538031732,35.67342482,1.828381448,76.88102724,44,Masonry,Raft,2.135506534,2.788629975,356372.3574,8736.800188,28090.60028,Shear Wall,0.600599846,0.481997078,641.0459997,0.242385238,0.761937775,76.19377752
Very High,1.351732024,0.850992699,0.191679624,0.458297269,Clay,1.906759721,8.276435789,91.79275201,2.931994511,17.83922208,32,Composite,Shallow,1.995587587,8.691725861,850808.4168,1498.631734,29211.20769,Moment Frame,4.521179695,1.005316423,1585.253451,2.654305273,0.192062615,19.20626151
Low,1.425039118,0.445379848,0.067002089,0.502424809,Clay,0.982412079,4.643975071,14.26351181,5.216684001,126.3225502,47,Steel,Shallow,1.498083776,2.748989289,221280.6877,3885.557905,11502.65409,Shear Wall,3.187913552,1.603014195,2199.765111,2.408448899,0.315073462,31.50734616
High,1.349581518,0.39794414,0.09914741,1.16765179,Rock,2.164002934,8.730809256,67.47966892,2.707299828,119.1179642,11,Concrete,Raft,1.625575477,2.454486225,109753.3447,6576.622198,24080.42512,Shear Wall,1.385354351,0.982286245,1314.286311,1.603776593,0.095170948,9.51709477
High,0.687227192,1.671874085,0.119504169,1.510897308,Rock,1.548490588,8.51433458,1.431598416,2.177660305,59.77223825,42,Concrete,Pile,1.92997667,2.859508726,409437.6529,829.8672469,23512.63408,Shear Wall,1.468571907,1.61290857,1123.227943,4.382106901,0.14347927,14.34792697
Very High,1.192511704,0.179638912,0.150648899,0.806567229,Sand,2.683035417,6.909848622,92.54045944,6.031083319,182.4932318,2,Steel,Shallow,4.946420637,5.579567633,865979.1191,7060.844401,31520.9313,Braced Frame,3.089954675,0.858406462,80.39380519,3.771678641,0.88318349,88.31834904
High,0.766870027,0.896447464,0.32175474,0.53911073,Soft Soil,1.756291926,6.946180087,12.13790919,0.980402275,64.30145143,26,Masonry,Raft,3.958197277,2.117686988,259783.6701,5516.321887,13721.09084,Braced Frame,2.093981376,1.99871233,3172.671768,4.304770278,0.109112644,10.91126442
Low,0.796555793,0.419586946,0.300871797,1.573919732,Sand,1.22424714,7.442000653,10.39353878,0.675860811,92.69645507,4,Masonry,Shallow,0.542725765,9.443064975,196259.4595,3241.379653,29505.67248,Braced Frame,2.262488438,0.877298186,3091.522264,0.892863901,0.095731207,9.573120729
Very High,0.386552153,1.77072741,0.348343851,1.237756096,Rock,1.22043237,6.241725054,33.96775567,3.785228422,111.0336789,17,Concrete,Pile,4.387583247,9.696283365,914314.1125,8239.217281,12806.65009,Moment Frame,0.397184954,0.307265162,980.724927,3.492818599,0.940377311,94.03773108
Low,0.927582425,1.158376975,0.18188849,0.861745328,Sand,2.491281198,7.412500275,37.98306232,7.2345781,24.54521624,17,Concrete,Deep,3.239855967,9.76421668,941420.3425,3255.481767,22875.81834,Shear Wall,0.779822017,0.809720336,4721.067855,4.877998504,0.64590346,64.59034597
